ADDRESS_TYPE,X_COORD,Y_COORD,LATITUDE,LONGITUDE,ADDRESS_NUMBER_PREFIX,ADDRESS_NUMBER,ADDRESS_NUMBER_SUFFIX,PREMODIFIER,PREDIRECTIONAL,STREET_NAME,POSTTYPE,POSTDIRECTIONAL,POSTMODIFIER,BUILDING_TYPE,BUILDING_IDENTIFIER,UNIT_TYPE,UNIT_IDENTIFIER,COMPOSITE_UNIT_TYPE,COMPOSIT_UNIT_IDENTIFIER,FULL_ADDRESS
S,3191916,1710545,39.78227325,-104.81714638,,4942,,,N,Altura,St,,,,,,,,,4942 N Altura St
S,3191930,1710598,39.78241845,-104.81709515,,4952,,,N,Altura,St,,,,,,,,,4952 N Altura St
S,3191944,1710651,39.78256365,-104.81704392,,4972,,,N,Altura,St,,,,,,,,,4972 N Altura St
S,3191974,1710762,39.78286774,-104.81693421,,4992,,,N,Altura,St,,,,,,,,,4992 N Altura St
S,3192057,1710740,39.78280563,-104.81663949,,4995,,,N,Enid,Way,,,,,,,,,4995 N Enid Way
S,3191959,1710363,39.78177275,-104.81699826,,4915,,,N,Enid,Way,,,,,,,,,4915 N Enid Way
S,3191942,1710306,39.78161663,-104.81706027,,4905,,,N,Enid,Way,,,,,,,,,4905 N Enid Way
S,3208269,1706894,39.7718991,-104.75906943,,19501,,,E,40th,Dr,,,,,,,,,19501 E 40th Dr
S,3208344,1709000,39.7776786,-104.75874149,,4530,,,N,Flanders,Way,,,,,,,,,4530 N Flanders Way
S,3205010,1726164,39.82486909,-104.77011226,,18600,,,E,71st,Ave,,,,,,,,,18600 E 71st Ave
S,3205008,1725827,39.82394405,-104.77012902,,18625,,,E,70th,Ave,,,,,,,,,18625 E 70th Ave
S,3204728,1725837,39.82397767,-104.77112555,,7010,,,N,Tower,Rd,,,,,,,,,7010 N Tower Rd
S,3207412,1709222,39.77830883,-104.76205086,,19364,,,E,Adak,Pl,,,,,,,,,19364 E Adak Pl
S,3209097,1709441,39.77887228,-104.7560497,,4530,,,N,Gibraltar,St,,,,,,,,,4530 N Gibraltar St
S,3209216,1710471,39.78169705,-104.75559629,,4705,,,N,Iran,St,,,,,,,,,4705 N Iran St
S,3209240,1710526,39.78184749,-104.7555093,,4745,,,N,Iran,St,,,,,,,,,4745 N Iran St
S,3209494,1710670,39.78223707,-104.75460139,,4782,,,N,Iran,St,,,,,,,,,4782 N Iran St
S,3209490,1710590,39.78201755,-104.75461795,,4762,,,N,Iran,St,,,,,,,,,4762 N Iran St
S,3209438,1710530,39.78185401,-104.75480472,,4752,,,N,Iran,St,,,,,,,,,4752 N Iran St
S,3213895,1707689,39.77395379,-104.7390318,,4140,,,N,Odessa,St,,,,,,,,,4140 N Odessa St
S,3213943,1707634,39.7738017,-104.73886268,,4138,,,N,Odessa,St,,,,,,,,,4138 N Odessa St
S,3213943,1707572,39.77363151,-104.73886452,,4136,,,N,Odessa,St,,,,,,,,,4136 N Odessa St
S,3213946,1707524,39.77349967,-104.73885528,,4134,,,N,Odessa,St,,,,,,,,,4134 N Odessa St
S,3213946,1707478,39.7733734,-104.73885665,,4128,,,N,Odessa,St,,,,,,,,,4128 N Odessa St
S,3213946,1707432,39.77324713,-104.73885803,,4126,,,N,Odessa,St,,,,,,,,,4126 N Odessa St
S,3213946,1707386,39.77312085,-104.7388594,,4114,,,N,Odessa,St,,,,,,,,,4114 N Odessa St
S,3213946,1707336,39.7729836,-104.73886089,,4100,,,N,Odessa,St,,,,,,,,,4100 N Odessa St
S,3213946,1707284,39.77284085,-104.73886244,,4098,,,N,Odessa,St,,,,,,,,,4098 N Odessa St
S,3213947,1707234,39.77270358,-104.73886037,,4094,,,N,Odessa,St,,,,,,,,,4094 N Odessa St
S,3213947,1707142,39.77245102,-104.73886311,,4078,,,N,Odessa,St,,,,,,,,,4078 N Odessa St
S,3213947,1707052,39.77220397,-104.73886579,,4062,,,N,Odessa,St,,,,,,,,,4062 N Odessa St
S,3139881,1678513,39.69526799,-105.00290999,,1173,,,S,Mariposa,St,,,,,,,,,1173 S Mariposa St
S,3180956,1711837,39.78604016,-104.85610828,,4900,,,N,Lima,St,,,,,,,,,4900 N Lima St
S,3168462,1707505,39.77438245,-104.90066649,,7500,,,E,41st,Ave,,,,,,,,,7500 E 41st Ave
S,3168293,1708043,39.77586239,-104.90125511,,7499,,,E,41st,Ave,,,,,,,,,7499 E 41st Ave
S,3169777,1706842,39.77253884,-104.89600486,,8000,,,E,40th,Ave,,,,,,,,,8000 E 40th Ave
S,3163514,1701224,39.75722805,-104.91841314,,2820,,,N,Jasmine,St,,,,,,,,,2820 N Jasmine St
S,3163513,1701208,39.75718535,-104.91841651,,2818,,,N,Jasmine,St,,,,,,,,,2818 N Jasmine St
S,3138992,1692468,39.73358937,-105.00580081,,1099,,,N,Osage,St,,,,,Unit,410,Unit,410,1099 N Osage St Unit 410
S,3160940,1708664,39.77769731,-104.9274016,,4485,,,N,Forest,St,,,,,,,,,4485 N Forest St
S,3161596,1709677,39.7804658,-104.92504351,,4635,,,N,Grape,St,,,,,,,,,4635 N Grape St
S,3179015,1710032,39.78112303,-104.86306037,,4620,,,N,Ironton,St,,,,,,,,,4620 N Ironton St
S,3179041,1710326,39.78192893,-104.86295941,,4690,,,N,Ironton,St,,,,,,,,,4690 N Ironton St
S,3178797,1710126,39.78138449,-104.86383377,,4695,,,N,Ironton,St,,,,,,,,,4695 N Ironton St
S,3180358,1710871,39.78339946,-104.85826113,,4750,,,N,Kingston,St,,,,,,,,,4750 N Kingston St
S,3179967,1710643,39.78278115,-104.85965804,,11075,,,E,47th,Ave,,,,,,,,,11075 E 47th Ave
S,3179965,1709267,39.77900349,-104.85969871,,11095,,,E,45th,Ave,,,,,,,,,11095 E 45th Ave
S,3204853,1725362,39.82267102,-104.77069412,,6900,,,N,Tower,Rd,,,,,,,,,6900 N Tower Rd
S,3193819,1709927,39.78053731,-104.81039229,,4900,,,N,Granby,St,,,,,,,,,4900 N Granby St
S,3193667,1710744,39.7827838,-104.81091085,,15199,,,E,50th,Way,,,,,,,,,15199 E 50th Way
S,3193630,1710745,39.78278754,-104.81104343,,15177,,,E,50th,Way,,,,,,,,,15177 E 50th Way
S,3193246,1710788,39.78291398,-104.81240905,,15051,,,E,50th,Way,,,,,,,,,15051 E 50th Way
S,3191007,1710504,39.78217941,-104.82038165,,4892,,,N,Durham,Ct,,,,,,,,,4892 N Durham Ct
S,3166659,1703927,39.76459186,-104.90716395,,3341,,,N,Olive,St,,,,,,,,,3341 N Olive St
S,3166646,1703988,39.76476135,-104.90720899,,3345,,,N,Olive,St,,,,,,,,,3345 N Olive St
S,3166257,1704111,39.76510514,-104.90858956,,3381,,,N,Oneida,St,,,,,,,,,3381 N Oneida St
S,3165523,1703770,39.76418218,-104.91120989,,3320,,,N,Magnolia,St,,,,,,,,,3320 N Magnolia St
S,3165459,1703728,39.76406749,-104.9114356,,3314,,,N,Magnolia,St,,,,,,,,,3314 N Magnolia St
S,3165607,1703835,39.76435966,-104.91090698,,3327,,,N,Niagara,St,,,,,,,,,3327 N Niagara St
S,3165287,1703330,39.76297846,-104.91205793,,3250,,,N,Monaco Street,Pkwy,,,,,,,,,3250 N Monaco Street Pkwy
S,3165922,1703028,39.76213916,-104.90980688,,3201,,,N,Newport,St,,,,,,,,,3201 N Newport St
S,3166670,1703096,39.76231137,-104.90714367,,3205,,,N,Olive,St,,,,,,,,,3205 N Olive St
S,3162279,1705131,39.76797423,-104.92271773,,3623,,,N,Holly,St,,,,,,,,,3623 N Holly St
S,3162179,1705518,39.76904085,-104.9230638,,3690,,,N,Hudson,St,,,,,,,,,3690 N Hudson St
S,3162277,1705466,39.76889508,-104.92271623,,3671,,,N,Holly,St,,,,,,,,,3671 N Holly St
S,3162276,1705274,39.76836877,-104.92272345,,3643,,,N,Holly,St,,,,,,,,,3643 N Holly St
S,3162123,1705081,39.76783968,-104.92327283,,3620,,,N,Hudson,St,,,,,,,,,3620 N Hudson St
S,3162143,1704974,39.76754772,-104.9232039,,5505,,,E,36th,Ave,,,,,,,,,5505 E 36th Ave
S,3166631,1703485,39.76337983,-104.90727544,,3275,,,N,Olive,St,,,,,,,,,3275 N Olive St
S,3166648,1703532,39.7635083,-104.90721106,,3283,,,N,Olive,St,,,,,,,,,3283 N Olive St
S,3166442,1703040,39.76216178,-104.90795632,,3200,,,N,Oneida,St,,,,,,,,,3200 N Oneida St
S,3166639,1703140,39.76243202,-104.90725195,,3209,,,N,Olive,St,,,,,,,,,3209 N Olive St
S,3165221,1705539,39.76904327,-104.91224245,,3690,,,N,Monaco Street,Pkwy,,,,,,,,,3690 N Monaco Street Pkwy
S,3165226,1705152,39.7679814,-104.91223243,,3612,,,N,Monaco Street,Pkwy,,,,,,,,,3612 N Monaco Street Pkwy
S,3163958,1703389,39.76316418,-104.91678554,,3265,,,N,Krameria,St,,,,,,,,,3265 N Krameria St
S,3163952,1703013,39.76213227,-104.91681309,,6123,,,E,Martin Luther King,Blvd,,,,,,,,,6123 E Martin Luther King Blvd
S,3163832,1703020,39.76215321,-104.91724044,,6101,,,E,Martin Luther King,Blvd,,,,,,,,,6101 E Martin Luther King Blvd
S,3164669,1703062,39.76225372,-104.9142623,,3205,,,N,Locust,St,,,,,,,,,3205 N Locust St
S,3164516,1703064,39.76226232,-104.91480566,,6315,,,E,Martin Luther King,Blvd,,,,,,,,,6315 E Martin Luther King Blvd
S,3167366,1709826,39.78077361,-104.90451136,,4595,,,N,Quebec,St,,,,,,,,,4595 N Quebec St
S,3161170,1706236,39.77102808,-104.92663687,,3888,,,N,Forest,St,,,,,,,,,3888 N Forest St
S,3160817,1707111,39.77343624,-104.92787385,,5105,,,E,41st,Ave,,,,,,,,,5105 E 41st Ave
S,3160481,1706884,39.77282009,-104.92907399,,5040,,,E,41st,Ave,,,,,,,,,5040 E 41st Ave
S,3160268,1705629,39.76937787,-104.92985798,,4925,,,E,38th,Ave,,,,,,,,,4925 E 38th Ave
S,3182989,1706468,39.77126133,-104.84901225,,3891,,,N,Paris,St,,,,,,,,,3891 N Paris St
S,3183232,1706242,39.77063615,-104.84815357,,3870,,,N,Paris,St,,,,,,,,,3870 N Paris St
S,3187221,1709233,39.77876736,-104.83388522,,4552,,,N,Anaheim,Ct,,,,,,,,,4552 N Anaheim Ct
S,3187792,1709421,39.77927193,-104.83184881,,4642,,,N,Carson,St,,,,,,,,,4642 N Carson St
S,3187820,1709489,39.77945803,-104.83174741,,4662,,,N,Carson,St,,,,,,,,,4662 N Carson St
S,3187878,1709632,39.77984941,-104.83153731,,4692,,,N,Carson,St,,,,,,,,,4692 N Carson St
S,3187907,1709701,39.78003823,-104.83143233,,4712,,,N,Carson,St,,,,,,,,,4712 N Carson St
S,3187907,1710972,39.78352727,-104.83139905,,4870,,,N,Crown,Blvd,,,,,,,,,4870 N Crown Blvd
L,3167003,1708513,39.77717717,-104.90583361,,7000,,,E,43rd,Ave,,,,,,,,,7000 E 43rd Ave
L,3166693,1708297,39.77658847,-104.90694145,,6900,,,E,43rd,Ave,,,,,,,,,6900 E 43rd Ave
S,3165798,1708559,39.77732368,-104.91011953,,6748,,,E,Stapleton South,Dr,,,Bldg,1,,,Bldg,1,6748 E Stapleton South Dr Bldg 1
S,3165798,1708559,39.77732368,-104.91011953,,6748,,,E,Stapleton South,Dr,,,Bldg,2,,,Bldg,2,6748 E Stapleton South Dr Bldg 2
S,3188079,1711066,39.78378183,-104.8307846,,4895,,,N,Blackhawk,Way,,,,,,,,,4895 N Blackhawk Way
S,3188051,1711011,39.78363142,-104.83088567,,4885,,,N,Blackhawk,Way,,,,,,,,,4885 N Blackhawk Way
S,3188024,1710960,39.78349196,-104.83098307,,4875,,,N,Blackhawk,Way,,,,,,,,,4875 N Blackhawk Way
S,3187996,1710906,39.78334429,-104.83108411,,4865,,,N,Blackhawk,Way,,,,,,,,,4865 N Blackhawk Way
S,3187968,1710852,39.78319662,-104.83118515,,4855,,,N,Blackhawk,Way,,,,,,,,,4855 N Blackhawk Way
S,3187912,1710745,39.78290403,-104.8313872,,4835,,,N,Blackhawk,Way,,,,,,,,,4835 N Blackhawk Way
S,3187883,1710690,39.78275363,-104.83149182,,4825,,,N,Blackhawk,Way,,,,,,,,,4825 N Blackhawk Way
S,3188081,1710723,39.78284022,-104.83078647,,4840,,,N,Blackhawk,Way,,,,,,,,,4840 N Blackhawk Way
S,3188053,1710669,39.78269255,-104.83088751,,4830,,,N,Blackhawk,Way,,,,,,,,,4830 N Blackhawk Way
S,3188026,1710618,39.78255309,-104.83098492,,4820,,,N,Blackhawk,Way,,,,,,,,,4820 N Blackhawk Way
L,3167137,1703055,39.7621905,-104.90548389,,7101,,,E,Martin Luther King,Blvd,,,,,,,,,7101 E Martin Luther King Blvd
S,3167159,1703337,39.76296366,-104.90539922,,3240,,,N,Pontiac,St,,,,,,,,,3240 N Pontiac St
S,3167374,1710059,39.78141314,-104.90447758,,4601,,,N,Quebec,St,,,,,,,,,4601 N Quebec St
S,3167327,1710581,39.78284769,-104.90463203,,7103,,,E,47th Avenue,Dr,,,,,,,,,7103 E 47th Avenue Dr
S,3165224,1705027,39.76763703,-104.9122435,,3602,,,N,Monaco Street,Pkwy,,,,,,,,,3602 N Monaco Street Pkwy
S,3166617,1704357,39.76577447,-104.90730499,,3501,,,N,Olive,St,,,,,,,,,3501 N Olive St
S,3166619,1704679,39.7666579,-104.9072887,,3551,,,N,Olive,St,,,,,,,,,3551 N Olive St
S,3166620,1704619,39.76649317,-104.90728654,,3541,,,N,Olive,St,,,,,,,,,3541 N Olive St
S,3163282,1703799,39.76430134,-104.91917905,,3323,,,N,Jasmine,St,,,,,,,,,3323 N Jasmine St
S,3163337,1703697,39.76402072,-104.91898677,,3303,,,N,Jasmine,St,,,,,,,,,3303 N Jasmine St
S,3163146,1703977,39.76479237,-104.91965877,,3370,,,N,Ivy,St,,,,,,,,,3370 N Ivy St
S,3167593,1710738,39.7832735,-104.90368119,,7203,,,E,47th Avenue,Dr,,,,,,,,,7203 E 47th Avenue Dr
L,3163040,1708258,39.77654615,-104.91993859,,5600,,,E,43rd,Ave,,,,,,,,,5600 E 43rd Ave
S,3163327,1709344,39.77952233,-104.91889282,,5885,,,E,Stapleton North,Dr,,,,,,,,,5885 E Stapleton North Dr
L,3164659,1709680,39.7804212,-104.91414606,,6300,,,E,46th,Ave,,,,,,,,,6300 E 46th Ave
S,3163997,1708658,39.77762738,-104.91652474,,6100,,,E,Stapleton South,Dr,,,,,#,G,#,G,6100 E Stapleton South Dr #G
L,3164343,1710450,39.78254054,-104.91525272,,4600,,,N,Leyden,St,,,,,,,,,4600 N Leyden St
S,3188808,1709484,39.7794243,-104.82823242,,14386,,,E,Elk,Dr,,,,,,,,,14386 E Elk Dr
S,3188778,1709502,39.77947432,-104.82833868,,14384,,,E,Elk,Dr,,,,,,,,,14384 E Elk Dr
S,3188748,1709520,39.77952434,-104.82844494,,14378,,,E,Elk,Dr,,,,,,,,,14378 E Elk Dr
S,3188716,1709536,39.77956891,-104.82855837,,14372,,,E,Elk,Dr,,,,,,,,,14372 E Elk Dr
S,3188684,1709549,39.77960525,-104.82867188,,14366,,,E,Elk,Dr,,,,,,,,,14366 E Elk Dr
S,3188651,1709562,39.77964161,-104.82878895,,14360,,,E,Elk,Dr,,,,,,,,,14360 E Elk Dr
S,3188619,1709575,39.77967794,-104.82890246,,14354,,,E,Elk,Dr,,,,,,,,,14354 E Elk Dr
S,3188586,1709588,39.77971429,-104.82901952,,14348,,,E,Elk,Dr,,,,,,,,,14348 E Elk Dr
S,3188554,1709601,39.77975063,-104.82913303,,14336,,,E,Elk,Dr,,,,,,,,,14336 E Elk Dr
S,3188521,1709614,39.77978699,-104.8292501,,14330,,,E,Elk,Dr,,,,,,,,,14330 E Elk Dr
S,3188489,1709627,39.77982332,-104.82936361,,14324,,,E,Elk,Dr,,,,,,,,,14324 E Elk Dr
S,3188458,1709639,39.77985689,-104.82947359,,14312,,,E,Elk,Dr,,,,,,,,,14312 E Elk Dr
S,3188426,1709651,39.77989048,-104.82958712,,14306,,,E,Elk,Dr,,,,,,,,,14306 E Elk Dr
S,3188854,1709353,39.77906376,-104.82807221,,14390,,,E,Elk,Dr,,,,,,,,,14390 E Elk Dr
S,3164933,1705516,39.76898562,-104.91326689,,3683,,,N,Monaco Street,Pkwy,,,,,,,,,3683 N Monaco Street Pkwy
S,3164942,1705553,39.76908825,-104.91323427,,3693,,,N,Monaco Street,Pkwy,,,,,,,,,3693 N Monaco Street Pkwy
S,3162828,1710083,39.78155972,-104.92065141,,4701,,,N,Ivy,St,,,,,,,,,4701 N Ivy St
L,3162688,1710237,39.78198492,-104.92114603,,5600,,,E,47th,Ave,,,,,,,,,5600 E 47th Ave
L,3162696,1709664,39.78041182,-104.92113056,,5600,,,E,46th,Ave,,,,,,,,,5600 E 46th Ave
S,3162690,1709811,39.78081546,-104.92114857,,4670,,,N,Holly,St,,,,,,,,,4670 N Holly St
S,3189026,1709480,39.77940889,-104.82745692,,14396,,,E,Elk,Dr,,,,,,,,,14396 E Elk Dr
S,3188991,1709464,39.77936568,-104.82758187,,14394,,,E,Elk,Dr,,,,,,,,,14394 E Elk Dr
S,3166754,1704668,39.76662528,-104.90680874,,3550,,,N,Olive,St,,,,,,,,,3550 N Olive St
S,3166800,1704811,39.76701701,-104.90664179,,3570,,,N,Olive,St,,,,,,,,,3570 N Olive St
S,3164770,1705002,39.7675773,-104.91385839,,3600,,,N,Locust,St,,,,,,,,,3600 N Locust St
S,3160795,1705258,39.76834965,-104.92799103,,3654,,,N,Fairfax,St,,,,,,,,,3654 N Fairfax St
S,3160837,1705205,39.76820469,-104.92784399,,3650,,,N,Fairfax,St,,,,,,,,,3650 N Fairfax St
S,3160986,1705175,39.76811867,-104.92731523,,3641,,,N,Forest,St,,,,,,,,,3641 N Forest St
S,3160998,1705112,39.76794552,-104.92727395,,3631,,,N,Forest,St,,,,,,,,,3631 N Forest St
S,3160984,1705473,39.76893676,-104.92731566,,3691,,,N,Forest,St,,,,,,,,,3691 N Forest St
S,3164589,1709248,39.77923655,-104.91440503,,6405,,,E,Stapleton North,Dr,,,,,,,,,6405 E Stapleton North Dr
S,3163327,1709344,39.77952233,-104.91889282,,5855,,,E,Stapleton North,Dr,,,,,,,,,5855 E Stapleton North Dr
S,3162509,1705426,39.76878089,-104.92189355,,3672,,,N,Holly,St,,,,,,,,,3672 N Holly St
S,3162458,1704416,39.76600895,-104.92209745,,3512,,,N,Holly,St,,,,,,,,,3512 N Holly St
S,3162505,1704309,39.76571526,-104.92193142,,3500,,,N,Holly,St,,,,,,,,,3500 N Holly St
S,3163292,1704789,39.76701885,-104.91912097,,3575,,,N,Jasmine,St,,,,,,,,,3575 N Jasmine St
S,3163784,1704562,39.76638764,-104.91737666,,3538,,,N,Kearney,St,,,,,,,,,3538 N Kearney St
S,3162500,1703018,39.76217108,-104.92197835,,5601,,,E,Martin Luther King,Blvd,,,,,,,,,5601 E Martin Luther King Blvd
S,3162666,1703166,39.76257543,-104.92138543,,3231,,,N,Ivanhoe,St,,,,,,,,,3231 N Ivanhoe St
S,3162679,1703531,39.76357735,-104.92133054,,3287,,,N,Ivanhoe,St,,,,,,,,,3287 N Ivanhoe St
S,3163291,1703286,39.76289293,-104.91915871,,3245,,,N,Jasmine,St,,,,,,,,,3245 N Jasmine St
S,3163801,1706601,39.77198507,-104.91726815,,3950,,,N,Kearney,St,,,,,,,,,3950 N Kearney St
S,3166347,1706935,39.77285579,-104.90820398,,6500,,,E,40th,Ave,,,,,,,,,6500 E 40th Ave
S,3165698,1707197,39.7735866,-104.91050675,,6501,,,E,40th,Ave,,,,,,,,,6501 E 40th Ave
L,3166355,1707710,39.77498313,-104.90815756,,4000,,,N,Oneida,St,,,,,,,,,4000 N Oneida St
L,3166316,1707725,39.775025,-104.90829596,,4001,,,N,Oneida,St,,,,,,,,,4001 N Oneida St
S,3166001,1707748,39.77509376,-104.90941607,,6795,,,E,Sandown,Rd,,,,,,,,,6795 E Sandown Rd
S,3164947,1705051,39.76770974,-104.9132266,,3611,,,N,Monaco Street,Pkwy,,,,,,,,,3611 N Monaco Street Pkwy
S,3164629,1705011,39.76760597,-104.91435966,,3601,,,N,Locust,St,,,,,,,,,3601 N Locust St
S,3164635,1705342,39.76851222,-104.91433111,,3653,,,N,Locust,St,,,,,,,,,3653 N Locust St
S,3162514,1702365,39.76037825,-104.92194334,,3000,,,N,Holly,St,,,,,,,,,3000 N Holly St
S,3163340,1701707,39.75855656,-104.91901997,,2901,,,N,Jasmine,St,,,,,,,,,2901 N Jasmine St
S,3163581,1701965,39.7592615,-104.91815727,,2950,,,N,Jasmine,St,,,,,,,,,2950 N Jasmine St
S,3163543,1701598,39.75825343,-104.91830054,,6008,,,E,29th,Ave,,,,,,,,,6008 E 29th Ave
S,3163509,1701597,39.75825174,-104.91842134,,6006,,,E,29th,Ave,,,,,,,,,6006 E 29th Ave
S,3163501,1701592,39.75823987,-104.9184496,,6004,,,E,29th,Ave,,,,,,,,,6004 E 29th Ave
S,3163483,1701598,39.75825448,-104.9185132,,6002,,,E,29th,Ave,,,,,,,,,6002 E 29th Ave
S,3163467,1701591,39.75823646,-104.91856967,,6000,,,E,29th,Ave,,,,,,,,,6000 E 29th Ave
S,3163464,1701567,39.75817025,-104.91858143,,2878,,,N,Jasmine,St,,,,,,,,,2878 N Jasmine St
S,3163464,1701532,39.75807395,-104.91858425,,2874,,,N,Jasmine,St,,,,,,,,,2874 N Jasmine St
S,3163465,1701508,39.75800869,-104.91857975,,2872,,,N,Jasmine,St,,,,,,,,,2872 N Jasmine St
S,3163465,1701498,39.75798229,-104.91858199,,2870,,,N,Jasmine,St,,,,,,,,,2870 N Jasmine St
S,3163465,1701467,39.75789762,-104.91858068,,2868,,,N,Jasmine,St,,,,,,,,,2868 N Jasmine St
S,3163752,1707687,39.77496489,-104.91741915,,4200,,,N,Kearney,St,,,,,,,,,4200 N Kearney St
S,3162449,1706515,39.77177307,-104.92208088,,3930,,,N,Holly,St,,,,,,,,,3930 N Holly St
S,3162619,1706750,39.77241329,-104.92146988,,4000,,,N,Holly,St,,,,,,,,,4000 N Holly St
S,3164562,1706837,39.77261852,-104.91455637,,6490,,,E,Smith,Rd,,,,,,,,,6490 E Smith Rd
S,3163510,1707896,39.77554416,-104.91827472,,4295,,,N,Kearney,St,,,,,,,,,4295 N Kearney St
S,3188884,1710287,39.78162708,-104.82794089,,4873,,,N,Cornish,Ct,,,,,,,,,4873 N Cornish Ct
S,3188827,1709671,39.77993725,-104.8281599,,14379,,,E,Elk,Dr,,,,,,,,,14379 E Elk Dr
S,3188860,1709659,39.77990364,-104.82804281,,14383,,,E,Elk,Dr,,,,,,,,,14383 E Elk Dr
S,3188890,1709647,39.77987009,-104.82793639,,14387,,,E,Elk,Dr,,,,,,,,,14387 E Elk Dr
S,3188950,1709621,39.7797975,-104.8277236,,14391,,,E,Elk,Dr,,,,,,,,,14391 E Elk Dr
S,3188994,1709622,39.77979935,-104.82756703,,14395,,,E,Elk,Dr,,,,,,,,,14395 E Elk Dr
S,3185233,1709856,39.78051773,-104.84094033,,12927,,,E,Albrook,Dr,,,,,,,,,12927 E Albrook Dr
S,3185168,1710539,39.78239421,-104.84115555,,4651,,,N,Tulsa,Ct,,,,,,,,,4651 N Tulsa Ct
S,3184876,1710318,39.78179271,-104.84220026,,12625,,,E,Albrook,Dr,,,,,,,,,12625 E Albrook Dr
S,3184356,1710415,39.78206931,-104.8440479,,12425,,,E,Albrook,Dr,,,,,,,,,12425 E Albrook Dr
S,3184103,1710460,39.78219785,-104.84494691,,12325,,,E,Albrook,Dr,,,,,,,,,12325 E Albrook Dr
S,3163605,1705295,39.7684028,-104.91799736,,3645,,,N,Kearney,St,,,,,,,,,3645 N Kearney St
S,3163462,1705352,39.76856139,-104.91850342,,3660,,,N,Jasmine,St,,,,,,,,,3660 N Jasmine St
S,3162673,1705458,39.7688662,-104.92130772,,3679,,,N,Ivanhoe,St,,,,,,,,,3679 N Ivanhoe St
S,3162483,1705529,39.76906443,-104.921982,,3690,,,N,Holly,St,,,,,,,,,3690 N Holly St
S,3183674,1710680,39.78281025,-104.84646764,,12125,,,E,Albrook,Dr,,,,,,,,,12125 E Albrook Dr
S,3184785,1709958,39.78080614,-104.84253496,,12770,,,E,Albrook,Dr,,,,,,,,,12770 E Albrook Dr
S,3183687,1709628,39.77992095,-104.84644726,,4600,,,N,Peoria,St,,,,,,,,,4600 N Peoria St
S,3183724,1709349,39.77915464,-104.84632537,,4590,,,N,Peoria,St,,,,,,,,,4590 N Peoria St
S,3162310,1705082,39.76784037,-104.92260752,,3619,,,N,Holly,St,,,,,,,,,3619 N Holly St
S,3162283,1704992,39.76759509,-104.92270433,,5565,,,E,36th,Ave,,,,,,,,,5565 E 36th Ave
S,3162014,1705011,39.76765176,-104.92366146,,3609,,,N,Hudson,St,,,,,,,,,3609 N Hudson St
S,3194525,1711653,39.78526192,-104.80783247,,4846,,,N,Chambers,Rd,,,,,,,,,4846 N Chambers Rd
S,3194154,1711990,39.78619467,-104.8091451,,4890,,,N,Chambers,Rd,,,,,,,,,4890 N Chambers Rd
S,3194582,1711252,39.78415745,-104.80764261,,4810,,,N,Chambers,Rd,,,,,,,,,4810 N Chambers Rd
S,3195906,1712035,39.78628026,-104.80290949,,5095,,,N,Kalispell,St,,,,,,,,,5095 N Kalispell St
S,3207259,1707876,39.77461735,-104.76263406,,4355,,,N,Dunkirk,Way,,,,,,,,,4355 N Dunkirk Way
S,3213821,1709113,39.7778645,-104.73925263,,21363,,,E,44th,Ave,,,,,,,,,21363 E 44th Ave
S,3214167,1708916,39.77731575,-104.73802755,,21541,,,E,44th,Ave,,,,,,,,,21541 E 44th Ave
S,3214161,1708876,39.77720609,-104.73805009,,21563,,,E,44th,Ave,,,,,,,,,21563 E 44th Ave
S,3214263,1708862,39.77716531,-104.73768762,,4415,,,N,Perth,Cir,,,,,,,,,4415 N Perth Cir
S,3204136,1725878,39.82410324,-104.77323193,,7001,,,N,Tower,Rd,,,,,,,,,7001 N Tower Rd
S,3196745,1716356,39.79812436,-104.79980565,,16100,,,E,56th,Ave,,,,,,,,,16100 E 56th Ave
S,3209547,1709671,39.77949353,-104.75444199,,20285,,,E,46th,Ave,,,,,,,,,20285 E 46th Ave
S,3204779,1710286,39.78128697,-104.77138785,,4650,,,N,Tower,Rd,,,,,,,,,4650 N Tower Rd
S,3206176,1710872,39.78286572,-104.76640081,,4775,,,N,Argonne,St,,,,,,,,,4775 N Argonne St
S,3206870,1707009,39.77224601,-104.76404293,,19100,,,E,40th,Ave,,,,,,,,,19100 E 40th Ave
S,3213947,1707007,39.77208044,-104.73886714,,4056,,,N,Odessa,St,,,,,,,,,4056 N Odessa St
S,3213948,1706957,39.77194316,-104.73886507,,4050,,,N,Odessa,St,,,,,,,,,4050 N Odessa St
L,3171230,1707648,39.77472446,-104.89081573,,8200,,,E,43rd,Ave,,,,,,,,,8200 E 43rd Ave
S,3171945,1706658,39.7719936,-104.88829577,,8401,,,E,39th,Ave,,,,,,,,,8401 E 39th Ave
S,3171945,1706658,39.7719936,-104.88829577,,8601,,,E,39th,Ave,,,,,,,,,8601 E 39th Ave
S,3170119.1,1704889.92,39.76717355,-104.89483323,,8080,,,E,Smith,Rd,,,Bldg,2,,,Bldg,2,8080 E Smith Rd Bldg 2
S,3183735,1705403,39.76832307,-104.84638569,,3700,,,N,Peoria,St,,,,,,,,,3700 N Peoria St
S,3184498,1706844,39.77226369,-104.84363447,,12445,,,E,39th,Ave,,,Bldg,D-200,,,Bldg,D-200,12445 E 39th Ave Bldg D-200
S,3184085,1705752,39.7692742,-104.8451317,,3777,,,N,Quentin,St,,,,,,,,,3777 N Quentin St
S,3184415,1705284,39.76798202,-104.8439694,,12401,,,E,37th,Ave,,,,,,,,,12401 E 37th Ave
S,3183269,1705391,39.76829979,-104.84804342,,12005,,,E,37th,Ave,,,,,,,,,12005 E 37th Ave
S,3163662,1704134,39.76521434,-104.91781891,,3375,,,N,Kearney,St,,,,,,,,,3375 N Kearney St
S,3163477,1703847,39.76443054,-104.91848292,,3330,,,N,Jasmine,St,,,,,,,,,3330 N Jasmine St
S,3163664,1704041,39.76495844,-104.91781563,,3361,,,N,Kearney,St,,,,,,,,,3361 N Kearney St
S,3163660,1703794,39.76428086,-104.91783438,,3321,,,N,Kearney,St,,,,,,,,,3321 N Kearney St
S,3163481,1703966,39.76475646,-104.9184691,,3348,,,N,Jasmine,St,,,,,,,,,3348 N Jasmine St
S,3207295,1707919,39.77473458,-104.76250474,,4365,,,N,Dunkirk,Way,,,,,,,,,4365 N Dunkirk Way
S,3207334,1707962,39.77485175,-104.76236476,,4375,,,N,Dunkirk,Way,,,,,,,,,4375 N Dunkirk Way
S,3207377,1708000,39.77495511,-104.76221069,,4385,,,N,Dunkirk,Way,,,,,,,,,4385 N Dunkirk Way
S,3207427,1708040,39.7750638,-104.76203165,,4395,,,N,Dunkirk,Way,,,,,,,,,4395 N Dunkirk Way
S,3206362,1707459,39.77349258,-104.76583716,,4301,,,N,Cathay,St,,,,,,,,,4301 N Cathay St
S,3207548,1708091,39.7752011,-104.76159971,,4300,,,N,Danube,Way,,,,,,,,,4300 N Danube Way
S,3207687,1708155,39.77537368,-104.76110335,,4435,,,N,Dunkirk,Way,,,,,,,,,4435 N Dunkirk Way
S,3207751,1708193,39.77547657,-104.76087457,,4445,,,N,Dunkirk,Way,,,,,,,,,4445 N Dunkirk Way
S,3207809,1708238,39.7755988,-104.76066693,,4465,,,N,Dunkirk,Way,,,,,,,,,4465 N Dunkirk Way
L,3176764,1720265,39.80925593,-104.87081718,,9700,,,E,64th,Ave,,,,,,,,,9700 E 64th Ave
S,3183893,1714212,39.79250157,-104.84559754,,12230,,,E,53rd,Ave,,,,,,,,,12230 E 53rd Ave
S,3190335,1708104,39.77560493,-104.82283624,,4387,,,N,Durham,Ct,,,,,,,,,4387 N Durham Ct
S,3204659,1720709,39.80990255,-104.77151759,,6250,,,N,Tower,Rd,,,,,,,,,6250 N Tower Rd
S,3204702,1716371,39.79799216,-104.77148799,,18504,,,E,56th,Ave,,,,,,,,,18504 E 56th Ave
S,3213807,1706834,39.77160875,-104.73937033,,21396,,,E,40th,Pl,,,,,,,,,21396 E 40th Pl
S,3213758,1706834,39.77160988,-104.73954464,,21376,,,E,40th,Pl,,,,,,,,,21376 E 40th Pl
S,3213713,1706834,39.77161091,-104.73970472,,21336,,,E,40th,Pl,,,,,,,,,21336 E 40th Pl
S,3213668,1706834,39.77161195,-104.7398648,,21306,,,E,40th,Pl,,,,,,,,,21306 E 40th Pl
S,3213623,1706834,39.77161298,-104.74002489,,21276,,,E,40th,Pl,,,,,,,,,21276 E 40th Pl
S,3213578,1706834,39.77161401,-104.74018497,,21236,,,E,40th,Pl,,,,,,,,,21236 E 40th Pl
S,3213533,1706833,39.7716123,-104.74034508,,21206,,,E,40th,Pl,,,,,,,,,21206 E 40th Pl
S,3213488,1706833,39.77161334,-104.74050516,,21166,,,E,40th,Pl,,,,,,,,,21166 E 40th Pl
S,3211016,1708336,39.77579562,-104.74925485,,20440,,,E,Kelly,Pl,,,,,,,,,20440 E Kelly Pl
S,3163444,1703696,39.76401598,-104.91860559,,3300,,,N,Jasmine,St,,,,,,,,,3300 N Jasmine St
S,3167896,1715505,39.79635363,-104.90249289,,5401,,,N,Roslyn,St,,,,,,,,,5401 N Roslyn St
S,3169162,1715531,39.79640206,-104.89798698,,5440,,,N,Roslyn,St,,,Bldg,1,,,Bldg,1,5440 N Roslyn St Bldg 1
S,3159911,1712009,39.78689781,-104.93098617,,4990,,,N,Dahlia,St,,,,,,,,,4990 N Dahlia St
L,3171710,1706128,39.77054302,-104.88914445,,8100,,,E,39th,Ave,,,,,,,,,8100 E 39th Ave
S,3170756,1706538,39.77168624,-104.89252847,,8107,,,E,39th,Ave,,,,,,,,,8107 E 39th Ave
S,3190015,1712103,39.78658892,-104.82386865,,14333,,,E,Bolling,Dr,,,,,,,,,14333 E Bolling Dr
S,3207695,1708428,39.77612292,-104.76106699,,19370,,,E,45th,Ave,,,,,,,,,19370 E 45th Ave
S,3207723,1708366,39.77595209,-104.76096917,,19360,,,E,45th,Ave,,,,,,,,,19360 E 45th Ave
S,3207914,1708129,39.77529724,-104.76029654,,4470,,,N,Dunkirk,Way,,,,,,,,,4470 N Dunkirk Way
S,3207940,1708038,39.77504685,-104.76020667,,4460,,,N,Dunkirk,Way,,,,,,,,,4460 N Dunkirk Way
S,3207882,1707990,39.77491639,-104.7604144,,4450,,,N,Dunkirk,Way,,,,,,,,,4450 N Dunkirk Way
S,3207795,1708003,39.77495402,-104.76072354,,4440,,,N,Dunkirk,Way,,,,,,,,,4440 N Dunkirk Way
S,3207737,1708013,39.77498276,-104.76092958,,4430,,,N,Dunkirk,Way,,,,,,,,,4430 N Dunkirk Way
S,3166643,1703038,39.76215264,-104.9072415,,3201,,,N,Olive,St,,,,,,,,,3201 N Olive St
S,3166957,1703509,39.763441,-104.90611328,,3275,,,N,Pontiac,St,,,,,,,,,3275 N Pontiac St
S,3163671,1704177,39.76533161,-104.91778845,,3381,,,N,Kearney,St,,,,,,,,,3381 N Kearney St
S,3163437,1704134,39.76521716,-104.91862113,,3372,,,N,Jasmine,St,,,,,,,,,3372 N Jasmine St
S,3163471,1704147,39.7652523,-104.91849856,,3376,,,N,Jasmine,St,,,,,,,,,3376 N Jasmine St
S,3163472,1704165,39.76530233,-104.91849444,,3380,,,N,Jasmine,St,,,,,,,,,3380 N Jasmine St
S,3163473,1704192,39.76537809,-104.91849196,,3384,,,N,Jasmine,St,,,,,,,,,3384 N Jasmine St
S,3163474,1704212,39.76543098,-104.91848781,,3388,,,N,Jasmine,St,,,,,,,,,3388 N Jasmine St
S,3163438,1704220,39.76545305,-104.91861362,,3392,,,N,Jasmine,St,,,,,,,,,3392 N Jasmine St
S,3163328,1704206,39.76541759,-104.91900446,,3395,,,N,Jasmine,St,,,,,,,,,3395 N Jasmine St
S,3163325,1704150,39.76526413,-104.91901811,,3377,,,N,Jasmine,St,,,,,,,,,3377 N Jasmine St
S,3163327,1704114,39.76516556,-104.91901174,,3371,,,N,Jasmine,St,,,,,,,,,3371 N Jasmine St
S,3161845,1707209,39.77368628,-104.92421195,,4040,,,N,Grape,St,,,,,,,,,4040 N Grape St
S,3161671,1707580,39.77470825,-104.9248242,,4155,,,N,Grape,St,,,,,,,,,4155 N Grape St
S,3167319,1703882,39.7644566,-104.90481785,,3335,,,N,Poplar,St,,,,,,,,,3335 N Poplar St
S,3167267,1704024,39.76484763,-104.9049978,,3355,,,N,Poplar,St,,,,,,,,,3355 N Poplar St
S,3167301,1703996,39.76477125,-104.90487988,,3349,,,N,Poplar,St,,,,,,,,,3349 N Poplar St
S,3167274,1703922,39.76456738,-104.9049761,,3341,,,N,Poplar,St,,,,,,,,,3341 N Poplar St
S,3167315,1703770,39.76415048,-104.90483401,,3311,,,N,Poplar,St,,,,,,,,,3311 N Poplar St
S,3167317,1703713,39.76399432,-104.90482993,,3301,,,N,Poplar,St,,,,,,,,,3301 N Poplar St
S,3166802,1703748,39.76409889,-104.90665937,,3310,,,N,Olive,St,,,,,,,,,3310 N Olive St
S,3166801,1703899,39.76451343,-104.90665942,,3336,,,N,Olive,St,,,,,,,,,3336 N Olive St
S,3166773,1703854,39.76438948,-104.90675881,,3330,,,N,Olive,St,,,,,,,,,3330 N Olive St
S,3166943,1703692,39.76394385,-104.90615798,,7025,,,E,33rd,Ave,,,,,,,,,7025 E 33rd Ave
S,3163510,1701194,39.75714735,-104.9184289,,2816,,,N,Jasmine,St,,,,,,,,,2816 N Jasmine St
S,3163487,1701199,39.75716136,-104.9185103,,2814,,,N,Jasmine,St,,,,,,,,,2814 N Jasmine St
S,3163474,1701187,39.75712801,-104.91855557,,2812,,,N,Jasmine,St,,,,,,,,,2812 N Jasmine St
S,3163467,1701166,39.75706911,-104.9185823,,2810,,,N,Jasmine,St,,,,,,,,,2810 N Jasmine St
S,3163466,1701136,39.75698868,-104.91858447,,2808,,,N,Jasmine,St,,,,,,,,,2808 N Jasmine St
S,3163466,1701129,39.7569697,-104.9185849,,2806,,,N,Jasmine,St,,,,,,,,,2806 N Jasmine St
S,3163465,1701100,39.75689023,-104.91858824,,2804,,,N,Jasmine,St,,,,,,,,,2804 N Jasmine St
S,3163466,1701093,39.75686905,-104.91858545,,2802,,,N,Jasmine,St,,,,,,,,,2802 N Jasmine St
S,3163466,1701064,39.75678956,-104.91858685,,2800,,,N,Jasmine,St,,,,,,,,,2800 N Jasmine St
S,3163486,1701034,39.75670683,-104.9185152,,6003,,,E,28th,Ave,,,,,,,,,6003 E 28th Ave
S,3163516,1701036,39.7567129,-104.91840872,,6005,,,E,28th,Ave,,,,,,,,,6005 E 28th Ave
S,3161190,1708704,39.77780272,-104.9265103,,4444,,,N,Forest,St,,,,,,,,,4444 N Forest St
L,3158593,1708177,39.77640068,-104.93576144,,4000,,,E,43rd,Ave,,,,,,,,,4000 E 43rd Ave
S,3180481.09,1710397.94,39.78209847,-104.85783507,,11170,,,E,47th,Ave,,,,,,,,,11170 E 47th Ave
S,3180349.64,1709271.61,39.77900912,-104.85833108,,11155,,,E,45th,Ave,,,,,,,,,11155 E 45th Ave
S,3179777,1710933,39.78358091,-104.86032679,,4770,,,N,Joliet,St,,,,,,,,,4770 N Joliet St
S,3178467,1710675,39.7828979,-104.86499423,,10555,,,E,47th,Ave,,,,,,,,,10555 E 47th Ave
S,3180089.93,1709021.89,39.77832865,-104.85926133,,11100,,,E,45th,Ave,,,,,,,,,11100 E 45th Ave
S,3178606,1707271,39.77355085,-104.86458438,,10515,,,E,40th,Ave,,,,,,,,,10515 E 40th Ave
S,3166984,1703916,39.76455726,-104.90600773,,3333,,,N,Pontiac,St,,,,,,,,,3333 N Pontiac St
S,3166957,1703747,39.76409275,-104.90610876,,3311,,,N,Pontiac,St,,,,,,,,,3311 N Pontiac St
L,3161049,1707862,39.77549252,-104.92703255,,4800,,,E,42nd,Ave,,,,,,,,,4800 E 42nd Ave
S,3161805,1706916,39.77288504,-104.92436328,,3990,,,N,Grape,St,,,,,,,,,3990 N Grape St
S,3161789,1706814,39.77260516,-104.9244211,,3950,,,N,Grape,St,,,,,,,,,3950 N Grape St
S,3178621,1706064,39.7702372,-104.86456105,,3700,,,N,Havana,St,,,,,,,,,3700 N Havana St
S,3180817,1706451,39.7712561,-104.85673898,,3855,,,N,Lima,St,,,Bldg,1,,,Bldg,1,3855 N Lima St Bldg 1
S,3180091.77,1708116.91,39.77584434,-104.85927749,,11000,,,E,45th,Ave,,,,,,,,,11000 E 45th Ave
S,3182493,1707237,39.77338207,-104.85075717,,11855,,,E,40th,Ave,,,,,,,,,11855 E 40th Ave
S,3181891,1705917,39.7697703,-104.85293224,,11645,,,E,37th,Ave,,,,,,,,,11645 E 37th Ave
S,3182584,1706389,39.77105242,-104.850455,,3850,,,N,Nome,St,,,,,,,,,3850 N Nome St
S,3182000,1706635,39.77173917,-104.85252629,,3901,,,N,Nome,St,,,,,,,,,3901 N Nome St
S,3166637,1703232,39.76268467,-104.90725723,,3221,,,N,Olive,St,,,,,,,,,3221 N Olive St
S,3166664,1703339,39.7629786,-104.90715974,,3251,,,N,Olive,St,,,,,,,,,3251 N Olive St
S,3166998,1703176,39.76252516,-104.90597549,,3223,,,N,Pontiac,St,,,,,,,,,3223 N Pontiac St
S,3167000,1703120,39.76237139,-104.90596968,,3215,,,N,Pontiac,St,,,,,,,,,3215 N Pontiac St
S,3167128,1703582,39.76363735,-104.90550363,,3286,,,N,Pontiac,St,,,,,,,,,3286 N Pontiac St
S,3167143,1703264,39.76276379,-104.90545835,,3230,,,N,Pontiac,St,,,,,,,,,3230 N Pontiac St
S,3167099,1703119,39.76236687,-104.90561756,,3210,,,N,Pontiac,St,,,,,,,,,3210 N Pontiac St
S,3163552,1701034,39.75670655,-104.91828095,,6007,,,E,28th,Ave,,,,,,,,,6007 E 28th Ave
S,3163374,1701064,39.7567917,-104.91891386,,2801,,,N,Jasmine,St,,,,,,,,,2801 N Jasmine St
S,3163353,1701371,39.75763582,-104.91897999,,2851,,,N,Jasmine,St,,,,,,,,,2851 N Jasmine St
S,3160833,1705409,39.76876368,-104.92785425,,3680,,,N,Fairfax,St,,,,,,,,,3680 N Fairfax St
S,3160833,1705309,39.76848917,-104.92785649,,3660,,,N,Fairfax,St,,,,,,,,,3660 N Fairfax St
S,3159983,1707699,39.77506579,-104.93082624,,4855,,,E,41st,Ave,,,,,,,,,4855 E 41st Ave
S,3160184,1706382,39.77144602,-104.9301417,,4940,,,E,39th,Ave,,,,,,,,,4940 E 39th Ave
S,3166785,1705553,39.76905543,-104.90667775,,3690,,,N,Olive,St,,,,,,,,,3690 N Olive St
S,3165220,1705303,39.7683956,-104.91224973,,3650,,,N,Monaco Street,Pkwy,,,,,,,,,3650 N Monaco Street Pkwy
S,3183299,1713426,39.79035571,-104.84773173,,5135,,,N,Peoria,St,,,,,,,,,5135 N Peoria St
S,3183224,1712271,39.78718659,-104.8480281,,4950,,,N,Paris,St,,,,,,,,,4950 N Paris St
S,3182823,1713567,39.79075214,-104.84942192,,11909,,,E,51st,Ave,,,,,,,,,11909 E 51st Ave
S,3163825,1704500,39.76621732,-104.91723245,,3530,,,N,Kearney,St,,,,,,,,,3530 N Kearney St
S,3164114,1704847,39.76716361,-104.91619562,,3580,,,N,Krameria,St,,,,,,,,,3580 N Krameria St
S,3159908,1711268,39.7848627,-104.93101395,,4900,,,N,Dahlia,St,,,,,,,,,4900 N Dahlia St
L,3160695,1708147,39.77628225,-104.92828386,,5000,,,E,43rd,Ave,,,,,,,,,5000 E 43rd Ave
S,3159855,1710250,39.78207023,-104.93122401,,4700,,,N,Dahlia,St,,,,,,,,,4700 N Dahlia St
S,3160886,1708119,39.77620266,-104.92760372,,4275,,,N,Forest,St,,,,,,,,,4275 N Forest St
L,3162038,1708253,39.77654994,-104.92350351,,5400,,,E,43rd,Ave,,,,,,,,,5400 E 43rd Ave
L,3161709,1710225,39.78196906,-104.92462955,,5200,,,E,48th,Ave,,,,,,,,,5200 E 48th Ave
S,3170801,1706917,39.77272508,-104.8923606,,8250,,,E,40th,Ave,,,,,,,,,8250 E 40th Ave
S,3170903,1706535,39.77167458,-104.89200697,,8125,,,E,39th,Ave,,,,,,,,,8125 E 39th Ave
S,3207447,1707588,39.77382257,-104.76197356,,4123,,,N,Dunkirk,Ct,,,,,,,,,4123 N Dunkirk Ct
S,3207481,1707626,39.77392612,-104.76185151,,4125,,,N,Dunkirk,Ct,,,,,,,,,4125 N Dunkirk Ct
S,3207512,1707662,39.77402425,-104.76174018,,4129,,,N,Dunkirk,Ct,,,,,,,,,4129 N Dunkirk Ct
S,3207542,1707698,39.77412241,-104.76163242,,4137,,,N,Dunkirk,Ct,,,,,,,,,4137 N Dunkirk Ct
S,3207911,1707391,39.77327143,-104.76032859,,4111,,,N,Ensenada,St,,,,,,,,,4111 N Ensenada St
S,3207914,1707443,39.7734141,-104.76031641,,4117,,,N,Ensenada,St,,,,,,,,,4117 N Ensenada St
S,3207909,1707495,39.77355696,-104.76033269,,4121,,,N,Ensenada,St,,,,,,,,,4121 N Ensenada St
S,3207922,1707589,39.77381471,-104.76028372,,4133,,,N,Ensenada,St,,,,,,,,,4133 N Ensenada St
S,3207965,1707646,39.77397022,-104.76012909,,19398,,,E,41st,Pl,,,,,,,,,19398 E 41st Pl
S,3207916,1707662,39.77401523,-104.76030295,,19394,,,E,41st,Pl,,,,,,,,,19394 E 41st Pl
S,3207821,1707656,39.77400088,-104.76064108,,19388,,,E,41st,Pl,,,,,,,,,19388 E 41st Pl
S,3207766,1707664,39.77402408,-104.76083652,,19386,,,E,41st,Pl,,,,,,,,,19386 E 41st Pl
S,3188397,1712287,39.78712716,-104.82962109,,5021,,,N,Crown,Blvd,,,,,,,,,5021 N Crown Blvd
S,3182316,1714698,39.7938668,-104.85119728,,5301,,,N,Oswego,St,,,,,,,,,5301 N Oswego St
S,3183031,1715547,39.79618334,-104.84863126,,5501,,,N,Peoria,St,,,,,,,,,5501 N Peoria St
S,3183035,1715021,39.79473934,-104.84863045,,5475,,,N,Peoria,St,,,Bldg,1,,,Bldg,1,5475 N Peoria St Bldg 1
S,3191102,1713496,39.7903908,-104.81996396,,5273,,,N,Sable,St,,,,,,,,,5273 N Sable St
S,3191069,1713369,39.79004285,-104.82008476,,5243,,,N,Sable,St,,,,,,,,,5243 N Sable St
S,3191368,1711564,39.7850818,-104.81906896,,5059,,,N,Durham,Ct,,,,,,,,,5059 N Durham Ct
S,3191426,1711857,39.78588492,-104.81885478,,5099,,,N,Durham,Ct,,,,,,,,,5099 N Durham Ct
S,3191564,1711789,39.78569541,-104.81836557,,5096,,,N,Durham,Ct,,,,,,,,,5096 N Durham Ct
S,3194141,1708051,39.77538039,-104.80929839,,4550,,,N,Chambers,Rd,,,,,,,,,4550 N Chambers Rd
S,3196146,1707481,39.77377304,-104.80218087,,4255,,,N,Kittredge,St,,,,,,,,,4255 N Kittredge St
S,3210941,1709321,39.77850124,-104.74949272,,4450,,,N,Jebel,St,,,,,,,,,4450 N Jebel St
S,3210539,1709572,39.77919936,-104.75091556,,4455,,,N,Jebel,St,,,,,,,,,4455 N Jebel St
L,3213508,1712057,39.7859534,-104.74027835,,4801,,,N,Picadilly,Rd,,,,,,,,,4801 N Picadilly Rd
S,3164297,1704351,39.76579879,-104.915556,,6227,,,E,35th,Ave,,,,,,,,,6227 E 35th Ave
S,3164321,1704656,39.7666346,-104.91546321,,3551,,,N,Leyden,St,,,,,,,,,3551 N Leyden St
S,3164321,1704782,39.76698094,-104.91546018,,3571,,,N,Leyden,St,,,,,,,,,3571 N Leyden St
S,3164165,1704884,39.76726428,-104.91601335,,3590,,,N,Krameria,St,,,,,,,,,3590 N Krameria St
S,3182088,1712547,39.78796535,-104.85206332,,4920,,,N,Nome,St,,,,,,,,,4920 N Nome St
S,3182321,1712705,39.78839572,-104.85123014,,5001,,,N,Oakland,St,,,,,,,,,5001 N Oakland St
S,3182590,1712141,39.78684204,-104.85028717,,11925,,,E,49th,Ave,,,,,,,,,11925 E 49th Ave
S,3181976,1711226,39.78434355,-104.85249688,,4800,,,N,Nome,St,,,,,,,,,4800 N Nome St
S,3182363,1711770,39.78582728,-104.85110528,,4895,,,N,Oakland,St,,,,,,,,,4895 N Oakland St
S,3166721,1707134,39.77339658,-104.90686798,,7001,,,E,Sandown,Rd,,,,,,,,,7001 E Sandown Rd
S,3167591,1706499,39.77163593,-104.90378759,,3935,,,N,Quebec,St,,,,,,,,,3935 N Quebec St
S,3166172,1706748,39.7723467,-104.90883064,,6800,,,E,Smith,Rd,,,,,,,,,6800 E Smith Rd
L,3168304,1702525,39.76071531,-104.90134394,,7400,,,E,Martin Luther King Jr,Blvd,,,,,,,,,7400 E Martin Luther King Jr Blvd
L,3167909,1700608,39.7554606,-104.90279528,,2700,,,N,Quebec,St,,,,,,,,,2700 N Quebec St
S,3161025,1705216,39.76823055,-104.92717558,,3651,,,N,Forest,St,,,,,,,,,3651 N Forest St
S,3191542,1711732,39.78553939,-104.81844537,,5088,,,N,Durham,Ct,,,,,,,,,5088 N Durham Ct
S,3191522,1711542,39.78501823,-104.8185216,,5072,,,N,Durham,Ct,,,,,,,,,5072 N Durham Ct
S,3191547,1711350,39.78449066,-104.81843778,,5058,,,N,Durham,Ct,,,,,,,,,5058 N Durham Ct
S,3191470,1710806,39.78299891,-104.81872626,,4950,,,N,Durham,Ct,,,,,,,,,4950 N Durham Ct
S,3191494,1710855,39.78313293,-104.81863957,,4958,,,N,Durham,Ct,,,,,,,,,4958 N Durham Ct
S,3191514,1710901,39.78325879,-104.81856718,,4966,,,N,Durham,Ct,,,,,,,,,4966 N Durham Ct
S,3191534,1710946,39.78338191,-104.81849482,,4974,,,N,Durham,Ct,,,,,,,,,4974 N Durham Ct
S,3191556,1710993,39.78351047,-104.81841528,,4982,,,N,Durham,Ct,,,,,,,,,4982 N Durham Ct
S,3207678,1707631,39.77393545,-104.76115053,,4144,,,N,Dunkirk,Ct,,,,,,,,,4144 N Dunkirk Ct
S,3207611,1707569,39.77376675,-104.76139068,,4130,,,N,Dunkirk,Ct,,,,,,,,,4130 N Dunkirk Ct
S,3207584,1707530,39.7736603,-104.76148786,,4124,,,N,Dunkirk,Ct,,,,,,,,,4124 N Dunkirk Ct
S,3207538,1707447,39.77343348,-104.7616539,,4112,,,N,Dunkirk,Ct,,,,,,,,,4112 N Dunkirk Ct
S,3207550,1707399,39.77330145,-104.7616126,,4106,,,N,Dunkirk,Ct,,,,,,,,,4106 N Dunkirk Ct
S,3207561,1707351,39.77316944,-104.76157486,,4102,,,N,Dunkirk,Ct,,,,,,,,,4102 N Dunkirk Ct
S,3207689,1707393,39.77328187,-104.76111829,,19357,,,E,41st,Ave,,,,,,,,,19357 E 41st Ave
S,3207640,1707446,39.77342846,-104.76129107,,19359,,,E,41st,Ave,,,,,,,,,19359 E 41st Ave
S,3207658,1707491,39.77355158,-104.76122573,,19361,,,E,41st,Ave,,,,,,,,,19361 E 41st Ave
S,3207690,1707526,39.77364695,-104.76111088,,19363,,,E,41st,Ave,,,,,,,,,19363 E 41st Ave
S,3207733,1707553,39.77372011,-104.76095713,,19365,,,E,41st,Ave,,,,,,,,,19365 E 41st Ave
S,3207782,1707560,39.77373823,-104.76078261,,19367,,,E,41st,Ave,,,,,,,,,19367 E 41st Ave
S,3207823,1707541,39.77368515,-104.7606373,,19369,,,E,41st,Ave,,,,,,,,,19369 E 41st Ave
S,3207837,1707492,39.77355033,-104.76058891,,19371,,,E,41st,Ave,,,,,,,,,19371 E 41st Ave
S,3207834,1707436,39.77339667,-104.76060121,,19373,,,E,41st,Ave,,,,,,,,,19373 E 41st Ave
S,3207824,1707385,39.7732569,-104.76063826,,19375,,,E,41st,Ave,,,,,,,,,19375 E 41st Ave
S,3207928,1707231,39.77283183,-104.76027274,,4077,,,N,Ensenada,St,,,,,,,,,4077 N Ensenada St
S,3207929,1707183,39.77270004,-104.76027057,,4071,,,N,Ensenada,St,,,,,,,,,4071 N Ensenada St
S,3207928,1707133,39.77256281,-104.76027558,,4067,,,N,Ensenada,St,,,,,,,,,4067 N Ensenada St
S,3207913,1707083,39.77242589,-104.76033039,,4063,,,N,Ensenada,St,,,,,,,,,4063 N Ensenada St
S,3178589,1714531,39.79348069,-104.86446417,,10600,,,E,54th,Ave,,,,,,,,,10600 E 54th Ave
S,3194700,1707670,39.77432321,-104.80731905,,15475,,,E,Andrews,Dr,,,,,,,,,15475 E Andrews Dr
S,3194652,1707406,39.7735995,-104.80749697,,15495,,,E,Andrews,Dr,,,,,,,,,15495 E Andrews Dr
S,3194615,1707855,39.77483283,-104.80761642,,15447,,,E,Andrews,Dr,,,,,,,,,15447 E Andrews Dr
L,3201348,1709785,39.77998757,-104.7836092,,4300,,,N,Buckley,Rd,,,,,,,,,4300 N Buckley Rd
L,3210298,1708885,39.77732031,-104.75179399,,4372,,,N,Iran,St,,,,,,,,,4372 N Iran St
S,3210048,1710436,39.78158222,-104.75263714,,4784,,,N,Ireland,St,,,,,,,,,4784 N Ireland St
S,3209996,1710386,39.78144614,-104.75282362,,4774,,,N,Ireland,St,,,,,,,,,4774 N Ireland St
S,3165654,1706580,39.77189453,-104.91067911,,3936,,,N,Niagara,St,,,,,,,,,3936 N Niagara St
S,3165658,1706326,39.77119602,-104.91066923,,3900,,,N,Niagara,St,,,,,,,,,3900 N Niagara St
S,3165541,1706622,39.77201043,-104.91107844,,3925,,,N,Niagara,St,,,,,,,,,3925 N Niagara St
S,3183815,1709739,39.78022369,-104.84599135,,4620,,,N,Peoria,St,,,,,,,,,4620 N Peoria St
S,3183715,1710917,39.78345891,-104.84631683,,4754,,,N,Peoria,St,,,,,,,,,4754 N Peoria St
S,3183912,1710922,39.7834711,-104.8456148,,4762,,,N,Peoria,St,,,,,,,,,4762 N Peoria St
S,3183987,1710997,39.78367513,-104.84534418,,4766,,,N,Peoria,St,,,,,,,,,4766 N Peoria St
S,3183910,1711069,39.78387325,-104.845618,,4770,,,N,Peoria,St,,,,,,,,,4770 N Peoria St
S,3183596,1710963,39.78358994,-104.84673953,,4750,,,N,Peoria,St,,,,,,,,,4750 N Peoria St
S,3184035,1710780,39.78307894,-104.84518003,,12225,,,E,Albrook,Dr,,,,,,,,,12225 E Albrook Dr
S,3184051,1710799,39.78313009,-104.84512211,,12235,,,E,Albrook,Dr,,,,,,,,,12235 E Albrook Dr
S,3184067,1710826,39.7832027,-104.84506583,,12245,,,E,Albrook,Dr,,,,,,,,,12245 E Albrook Dr
S,3184077,1710846,39.78325825,-104.84502825,,12255,,,E,Albrook,Dr,,,,,,,,,12255 E Albrook Dr
S,3184036,1710767,39.78304187,-104.8451779,,12265,,,E,Albrook,Dr,,,,,,,,,12265 E Albrook Dr
S,3164648,1704750,39.76688738,-104.9142974,,3565,,,N,Locust,St,,,,,,,,,3565 N Locust St
S,3164762,1704886,39.76726001,-104.91388868,,3590,,,N,Locust,St,,,,,,,,,3590 N Locust St
S,3164501,1704165,39.76528395,-104.9148334,,3536,,,N,Locust,St,,,,,,,,,3536 N Locust St
S,3164783,1704351,39.76579106,-104.91382789,,3500,,,N,Locust,St,,,,,,,,,3500 N Locust St
S,3164157,1703721,39.76407252,-104.9160701,,3310,,,N,Krameria,St,,,,,,,,,3310 N Krameria St
S,3162157,1705168,39.7680794,-104.92314813,,3634,,,N,Hudson,St,,,,,,,,,3634 N Hudson St
S,3162339,1705227,39.76823745,-104.92250049,,3633,,,N,Holly,St,,,,,,,,,3633 N Holly St
S,3162339,1705514,39.76902439,-104.92249542,,3691,,,N,Holly,St,,,,,,,,,3691 N Holly St
S,3162007,1710068,39.78153269,-104.9235738,,5501,,,E,47th,Ave,,,,,,,,,5501 E 47th Ave
S,3160865,1710008,39.781388,-104.92763734,,4725,,,N,Forest,St,,,,,,,,,4725 N Forest St
L,3160527,1710238,39.78202522,-104.92883478,,4800,,,E,47th,Ave,,,,,,,,,4800 E 47th Ave
S,3160784,1708501,39.77725249,-104.9279593,,4301,,,N,Forest,St,,,,,,,,,4301 N Forest St
S,3161641,1710565,39.78290358,-104.92486383,,4770,,,N,Forest,St,,,,,,,,,4770 N Forest St
S,3160112,1708442,39.77710212,-104.9303514,,4350,,,N,Dahlia,St,,,,,,,,,4350 N Dahlia St
L,3172988.15,1705999.52,39.77016664,-104.8846007,,8900,,,E,38th,Ave,,,,,,,,,8900 E 38th Ave
S,3182526,1710080,39.78118579,-104.85056747,,4665,,,N,Paris,St,,,,,,,,,4665 N Paris St
S,3183071,1710040,39.78106544,-104.84862828,,4685,,,N,Peoria,St,,,,,,,,,4685 N Peoria St
S,3183447,1709601,39.77985276,-104.84730288,,4601,,,N,Peoria,St,,,,,,,,,4601 N Peoria St
S,3182657,1708354,39.77644515,-104.85014531,,12000,,,E,45th,Ave,,,,,,,,,12000 E 45th Ave
S,3182428,1710653,39.78275954,-104.85090175,,4705,,,N,Oakland,St,,,Bldg,1,#,A,#,A,4705 N Oakland St # A
S,3182428,1710653,39.78275954,-104.85090175,,4705,,,N,Oakland,St,,,Bldg,1,#,B,#,B,4705 N Oakland St # B
S,3178664,1716218,39.79810898,-104.8641555,,10500,,,E,56th,Ave,,,,,,,,,10500 E 56th Ave
S,3191573,1711042,39.78364463,-104.81835349,,4990,,,N,Durham,Ct,,,,,,,,,4990 N Durham Ct
S,3191578,1711100,39.78380375,-104.81833415,,4998,,,N,Durham,Ct,,,,,,,,,4998 N Durham Ct
S,3191844,1709962,39.78067434,-104.81741814,,4741,,,N,Enid,Way,,,,,,,,,4741 N Enid Way
S,3191813,1710138,39.78115811,-104.81752373,,4862,,,N,Altura,St,,,,,,,,,4862 N Altura St
S,3191482,1710481,39.78210651,-104.81869224,,4909,,,N,Eagle,St,,,,,,,,,4909 N Eagle St
S,3191514,1710576,39.78236663,-104.81857585,,4925,,,N,Eagle,St,,,,,,,,,4925 N Eagle St
S,3191862,1710924,39.78331475,-104.81732838,,14863,,,E,50th,Ave,,,,,,,,,14863 E 50th Ave
S,3191910,1710911,39.78327808,-104.81715794,,14893,,,E,50th,Ave,,,,,,,,,14893 E 50th Ave
S,3192007,1710885,39.7832047,-104.81681351,,14905,,,E,50th,Ave,,,,,,,,,14905 E 50th Ave
S,3192055,1710873,39.78317077,-104.81664305,,14909,,,E,50th,Ave,,,,,,,,,14909 E 50th Ave
S,3191664,1710485,39.78211374,-104.81804459,,4916,,,N,Eagle,St,,,,,,,,,4916 N Eagle St
S,3191751,1710791,39.78295195,-104.81772687,,4978,,,N,Eagle,St,,,,,,,,,4978 N Eagle St
S,3191840,1710802,39.78298031,-104.81740992,,4993,,,N,Altura,St,,,,,,,,,4993 N Altura St
S,3191827,1710752,39.78284332,-104.8174575,,4983,,,N,Altura,St,,,,,,,,,4983 N Altura St
S,3191814,1710703,39.78270908,-104.81750507,,4973,,,N,Altura,St,,,,,,,,,4973 N Altura St
S,3191802,1710655,39.78257756,-104.81754905,,4963,,,N,Altura,St,,,,,,,,,4963 N Altura St
S,3207894,1707037,39.77230004,-104.76039931,,4059,,,N,Ensenada,St,,,,,,,,,4059 N Ensenada St
S,3207875,1706996,39.77218792,-104.76046809,,4055,,,N,Ensenada,St,,,,,,,,,4055 N Ensenada St
S,3208045,1706949,39.77205509,-104.7598647,,4092,,,N,Ensenada,St,,,,,,,,,4092 N Ensenada St
S,3208030,1706898,39.77191543,-104.75991953,,4088,,,N,Ensenada,St,,,,,,,,,4088 N Ensenada St
S,3208015,1706848,39.77177851,-104.75997434,,4072,,,N,Ensenada,St,,,,,,,,,4072 N Ensenada St
S,3208086,1706697,39.77136241,-104.75972614,,19489,,,E,40th,Pl,,,,,,,,,19489 E 40th Pl
S,3208094,1706769,39.77155988,-104.7596956,,4055,,,N,Espana,St,,,,,,,,,4055 N Espana St
S,3201113,1707858,39.77470284,-104.78449928,,4010,,,N,Buckley,Rd,,,,,,,,,4010 N Buckley Rd
L,3200364,1707321,39.7732442,-104.78717806,,4000,,,N,Buckley,Rd,,,,,,,,,4000 N Buckley Rd
S,3207934,1710068,39.78061856,-104.76016934,,19535,,,E,46th,Ave,,,,,,,,,19535 E 46th Ave
S,3164317,1704075,39.76504209,-104.91549034,,3365,,,N,Leyden,St,,,,,,,,,3365 N Leyden St
S,3164330,1704027,39.76490747,-104.915447,,3359,,,N,Leyden,St,,,,,,,,,3359 N Leyden St
S,3163790,1704237,39.76549359,-104.91736282,,3390,,,N,Kearney,St,,,,,,,,,3390 N Kearney St
S,3182678,1711284,39.78448659,-104.84999694,,4780,,,N,Oakland,St,,,,,,,,,4780 N Oakland St
S,3183374,1711643,39.78545857,-104.84750969,,4895,,,N,Peoria,St,,,,,,,,,4895 N Peoria St
S,3181599,1713159,39.78965612,-104.85378772,,11610,,,E,51st,Ave,,,,,,,,,11610 E 51st Ave
S,3181495,1712030,39.78655893,-104.85418635,,4900,,,N,Moline,St,,,,,,,,,4900 N Moline St
S,3181826,1711897,39.78618821,-104.85301252,,4901,,,N,Nome,St,,,,,,,,,4901 N Nome St
S,3181500,1711518,39.78515333,-104.85418151,,4850,,,N,Moline,St,,,,,,,,,4850 N Moline St
S,3165217,1706881,39.77272769,-104.9122252,,6500,,,E,Smith,Rd,,,,,,,,,6500 E Smith Rd
S,3165219,1706172,39.77078205,-104.912235,,3898,,,N,Monaco Street,Pkwy,,,,,,,,,3898 N Monaco Street Pkwy
S,3165664,1706137,39.77067816,-104.91065198,,3880,,,N,Niagara,St,,,,,,,,,3880 N Niagara St
S,3165817,1705809,39.76977423,-104.91011547,,3825,,,N,Newport,St,,,,,,,,,3825 N Newport St
S,3165994,1706079,39.77051244,-104.90947998,,3880,,,N,Newport,St,,,,,,,,,3880 N Newport St
L,3169421,1710223,39.78182628,-104.89719062,,7600,,,E,48th,Ave,,,,,,,,,7600 E 48th Ave
S,3169467,1706827,39.772503,-104.89710714,,7850,,,E,40th,Ave,,,,,,,,,7850 E 40th Ave
S,3167258,1704620,39.76648447,-104.90501704,,3535,,,N,Quebec,St,,,,,,,,,3535 N Quebec St
L,3167336,1704853,39.76712268,-104.90473415,,7200,,,E,36th,Ave,,,,,,,,,7200 E 36th Ave
S,3167624,1703831,39.76431107,-104.90373303,,3333,,,N,Quebec,St,,,,,,,,,3333 N Quebec St
S,3167294,1703827,39.76430716,-104.90490835,,3323,,,N,Poplar,St,,,,,,,,,3323 N Poplar St
S,3167241,1704257,39.76548721,-104.90508657,,7126,,,E,35th,Ave,,,,,,,,,7126 E 35th Ave
S,3167287,1704174,39.76525833,-104.90492432,,3383,,,N,Poplar,St,,,,,,,,,3383 N Poplar St
S,3167277,1704122,39.765116,-104.90496262,,3373,,,N,Poplar,St,,,,,,,,,3373 N Poplar St
S,3163472,1701445,39.75783692,-104.91855703,,2866,,,N,Jasmine,St,,,,,,,,,2866 N Jasmine St
S,3163517,1701446,39.75783923,-104.91839599,,2862,,,N,Jasmine,St,,,,,,,,,2862 N Jasmine St
S,3163520,1701381,39.75765899,-104.91838743,,2856,,,N,Jasmine,St,,,,,,,,,2856 N Jasmine St
S,3163503,1701389,39.75768182,-104.91844762,,2854,,,N,Jasmine,St,,,,,,,,,2854 N Jasmine St
S,3163482,1701387,39.7576752,-104.91852415,,2852,,,N,Jasmine,St,,,,,,,,,2852 N Jasmine St
S,3163476,1701373,39.75763725,-104.91854459,,2850,,,N,Jasmine,St,,,,,,,,,2850 N Jasmine St
S,3163481,1701272,39.75735988,-104.91852878,,2830,,,N,Jasmine,St,,,,,,,,,2830 N Jasmine St
S,3163479,1701260,39.75732808,-104.91853709,,2828,,,N,Jasmine,St,,,,,,,,,2828 N Jasmine St
S,3163487,1701246,39.75728987,-104.91850722,,2826,,,N,Jasmine,St,,,,,,,,,2826 N Jasmine St
S,3163519,1701252,39.75730641,-104.91839538,,2824,,,N,Jasmine,St,,,,,,,,,2824 N Jasmine St
S,3163514,1701238,39.75726766,-104.91841281,,2822,,,N,Jasmine,St,,,,,,,,,2822 N Jasmine St
S,3208109,1706820,39.77169954,-104.75964076,,4063,,,N,Espana,St,,,,,,,,,4063 N Espana St
S,3208124,1706870,39.77183646,-104.75958595,,4075,,,N,Espana,St,,,,,,,,,4075 N Espana St
S,3208139,1706921,39.77197613,-104.75953111,,4087,,,N,Espana,St,,,,,,,,,4087 N Espana St
S,3208503,1706859,39.77179778,-104.75823801,,19593,,,E,40th,Dr,,,,,,,,,19593 E 40th Dr
S,3208444,1706867,39.77182106,-104.75844766,,19573,,,E,40th,Dr,,,,,,,,,19573 E 40th Dr
S,3208386,1706876,39.77184707,-104.75865373,,19553,,,E,40th,Dr,,,,,,,,,19553 E 40th Dr
S,3208329,1706885,39.77187305,-104.75885624,,19533,,,E,40th,Dr,,,,,,,,,19533 E 40th Dr
S,3179839,1715283,39.79552091,-104.85999715,,10990,,,E,55th,Ave,,,,,,,,,10990 E 55th Ave
S,3180085,1715143,39.79513184,-104.85912524,,11100,,,E,55th,Ave,,,,,,,,,11100 E 55th Ave
S,3179815,1714159,39.79243589,-104.86011074,,11000,,,E,53rd,Ave,,,,,,,,,11000 E 53rd Ave
S,3178949,1713541,39.79075612,-104.8632078,,10705,,,E,51st,Ave,,,,,,,,,10705 E 51st Ave
S,3179678,1711894,39.78622179,-104.86065633,,4890,,,N,Joliet,St,,,,,,,,,4890 N Joliet St
S,3178995,1711432,39.78496632,-104.86309813,,4860,,,N,Ironton,St,,,,,,,,,4860 N Ironton St
S,3178782,1711847,39.78610912,-104.86384426,,4901,,,N,Ironton,St,,,,,,,,,4901 N Ironton St
S,3191789,1710607,39.78244606,-104.81759658,,4953,,,N,Altura,St,,,,,,,,,4953 N Altura St
S,3191776,1710558,39.78231182,-104.81764415,,4943,,,N,Altura,St,,,,,,,,,4943 N Altura St
S,3191763,1710510,39.78218032,-104.81769168,,4933,,,N,Altura,St,,,,,,,,,4933 N Altura St
S,3191751,1710462,39.78204881,-104.81773566,,4923,,,N,Altura,St,,,,,,,,,4923 N Altura St
S,3191738,1710413,39.78191456,-104.81778322,,4913,,,N,Altura,St,,,,,,,,,4913 N Altura St
S,3191724,1710361,39.78177211,-104.81783443,,4903,,,N,Altura,St,,,,,,,,,4903 N Altura St
S,3191859,1710327,39.78167599,-104.81735501,,4902,,,N,Altura,St,,,,,,,,,4902 N Altura St
S,3191874,1710385,39.7818349,-104.81730009,,4912,,,N,Altura,St,,,,,,,,,4912 N Altura St
S,3191888,1710439,39.78198284,-104.81724884,,4922,,,N,Altura,St,,,,,,,,,4922 N Altura St
S,3191902,1710492,39.78212804,-104.81719761,,4932,,,N,Altura,St,,,,,,,,,4932 N Altura St
S,3212960,1707756,39.77415916,-104.74235608,,4152,,,N,Malaya,St,,,,,,,,,4152 N Malaya St
S,3212974,1707804,39.77429061,-104.74230485,,4158,,,N,Malaya,St,,,,,,,,,4158 N Malaya St
S,3212985,1707850,39.77441663,-104.74226435,,4162,,,N,Malaya,St,,,,,,,,,4162 N Malaya St
S,3207684,1707995,39.77493453,-104.76111866,,4420,,,N,Dunkirk,Way,,,,,,,,,4420 N Dunkirk Way
S,3207630,1707978,39.77488907,-104.76131126,,4410,,,N,Dunkirk,Way,,,,,,,,,4410 N Dunkirk Way
S,3207575,1707958,39.7748354,-104.7615075,,4400,,,N,Dunkirk,Way,,,,,,,,,4400 N Dunkirk Way
S,3207473,1707895,39.77466473,-104.76187219,,4380,,,N,Dunkirk,Way,,,,,,,,,4380 N Dunkirk Way
S,3207390,1707810,39.77443325,-104.76216992,,4360,,,N,Dunkirk,Way,,,,,,,,,4360 N Dunkirk Way
S,3207353,1707767,39.77431604,-104.76230279,,4350,,,N,Dunkirk,Way,,,,,,,,,4350 N Dunkirk Way
S,3207316,1707723,39.77419608,-104.76243569,,4340,,,N,Dunkirk,Way,,,,,,,,,4340 N Dunkirk Way
S,3207278,1707678,39.77407339,-104.76257218,,4330,,,N,Dunkirk,Way,,,,,,,,,4330 N Dunkirk Way
S,3207248,1707625,39.77392857,-104.76268044,,4324,,,N,Dunkirk,Way,,,,,,,,,4324 N Dunkirk Way
S,3207225,1707569,39.77377536,-104.76276387,,4316,,,N,Dunkirk,Way,,,,,,,,,4316 N Dunkirk Way
S,3207430,1707305,39.77304608,-104.76204222,,4101,,,N,Dunkirk,Ct,,,,,,,,,4101 N Dunkirk Ct
S,3183695,1713382,39.79022699,-104.84632286,,12215,,,E,Burlington,Pl,,,,,,,,,12215 E Burlington Pl
S,3189802,1707629,39.77431189,-104.82474502,,4307,,,N,Deephaven,Ct,,,,,,,,,4307 N Deephaven Ct
S,3192738,1707231,39.77315897,-104.81431074,,15094,,,E,Andrews,Dr,,,,,,,,,15094 E Andrews Dr
S,3191892,1707246,39.77321864,-104.81732142,,15070,,,E,Andrews,Dr,,,,,,,,,15070 E Andrews Dr
S,3206949,1708450,39.77619994,-104.76372034,,4395,,,N,Danube,Way,,,,,,,,,4395 N Danube Way
S,3207200,1708262,39.77567827,-104.76283281,,4345,,,N,Danube,Way,,,,,,,,,4345 N Danube Way
S,3207140,1708289,39.77575372,-104.76304549,,4355,,,N,Danube,Way,,,,,,,,,4355 N Danube Way
S,3206998,1708408,39.77608355,-104.76354723,,4385,,,N,Danube,Way,,,,,,,,,4385 N Danube Way
S,3207153,1707746,39.77426285,-104.76301491,,4337,,,N,Dunkirk,Way,,,,,,,,,4337 N Dunkirk Way
S,3207187,1707792,39.77438836,-104.76289262,,4345,,,N,Dunkirk,Way,,,,,,,,,4345 N Dunkirk Way
S,3210885,1708348,39.77583153,-104.74972054,,20410,,,E,Kelly,Pl,,,,,,,,,20410 E Kelly Pl
S,3210828,1708376,39.77590969,-104.7499225,,20390,,,E,Kelly,Pl,,,,,,,,,20390 E Kelly Pl
S,3210765,1708400,39.775977,-104.75014592,,20360,,,E,Kelly,Pl,,,,,,,,,20360 E Kelly Pl
S,3210702,1708416,39.77602235,-104.75036958,,20340,,,E,Kelly,Pl,,,,,,,,,20340 E Kelly Pl
S,3210638,1708425,39.7760485,-104.75059701,,20320,,,E,Kelly,Pl,,,,,,,,,20320 E Kelly Pl
S,3210632,1708565,39.77643295,-104.75061425,,20321,,,E,Kelly,Pl,,,,,,,,,20321 E Kelly Pl
S,3210701,1708559,39.77641492,-104.75036894,,20341,,,E,Kelly,Pl,,,,,,,,,20341 E Kelly Pl
S,3210708,1708638,39.77663162,-104.75034172,,20382,,,E,44th,Ave,,,,,,,,,20382 E 44th Ave
S,3210644,1708651,39.77666876,-104.75056903,,20352,,,E,44th,Ave,,,,,,,,,20352 E 44th Ave
S,3210580,1708640,39.77664001,-104.75079704,,4392,,,N,Ireland,St,,,,,,,,,4392 N Ireland St
S,3194647,1713305,39.78979296,-104.80735475,,5232,,,N,Helena,St,,,,,,,,,5232 N Helena St
S,3194636,1713371,39.78997437,-104.8073921,,5242,,,N,Helena,St,,,,,,,,,5242 N Helena St
S,3170628,1706744,39.77225382,-104.89297954,,8200,,,E,40th,Ave,,,,,,,,,8200 E 40th Ave
S,3183191,1705389,39.76829487,-104.84832009,,12001,,,E,37th,Ave,,,,,,,,,12001 E 37th Ave
S,3183175,1705544,39.76872118,-104.84837415,,3730,,,N,Paris,St,,,,,,,,,3730 N Paris St
S,3182995,1705493,39.76858472,-104.84901576,,3701,,,N,Paris,St,,,,,,,,,3701 N Paris St
S,3177219,1705051,39.7674832,-104.86957347,,10230,,,E,Smith,Rd,,,,,,,,,10230 E Smith Rd
S,3163195,1703012,39.7621415,-104.91950481,,3200,,,N,Ivy,St,,,,,,,,,3200 N Ivy St
S,3163109,1703244,39.76278219,-104.91980652,,3236,,,N,Ivy,St,,,,,,,,,3236 N Ivy St
S,3163661,1703238,39.7627538,-104.91784464,,3243,,,N,Kearney,St,,,,,,,,,3243 N Kearney St
S,3183751,1713649,39.79095895,-104.84611764,,12205,,,E,Berkeley,Pl,,,,,,,,,12205 E Berkeley Pl
S,3187640,1710840,39.7831703,-104.83235249,,4859,,,N,Crown,Blvd,,,,,,,,,4859 N Crown Blvd
S,3187677,1711170,39.78407456,-104.83221366,,4879,,,N,Crown,Blvd,,,,,,,,,4879 N Crown Blvd
S,3188319,1712143,39.78673345,-104.82990241,,5001,,,N,Crown,Blvd,,,,,,,,,5001 N Crown Blvd
S,3188359,1712216,39.78693303,-104.82975816,,5011,,,N,Crown,Blvd,,,,,,,,,5011 N Crown Blvd
S,3192211,1713727,39.79100206,-104.81601154,,5295,,,N,Dearborn,St,,,,,,,,,5295 N Dearborn St
S,3192179,1713649,39.7907886,-104.8161275,,5289,,,N,Dearborn,St,,,,,,,,,5289 N Dearborn St
S,3192833,1710924,39.78329467,-104.81387356,,14991,,,E,50th,Dr,,,,,,,,,14991 E 50th Dr
S,3191465,1713092,39.7892753,-104.81868156,,5200,,,N,Deephaven,Ct,,,,,,,,,5200 N Deephaven Ct
S,3191503,1713875,39.79142294,-104.81852694,,14515,,,E,53rd,Ave,,,,,,,,,14515 E 53rd Ave
S,3191571,1713896,39.79147918,-104.81828441,,14517,,,E,53rd,Ave,,,,,,,,,14517 E 53rd Ave
S,3191644,1713848,39.79134592,-104.81802592,,14519,,,E,53rd,Ave,,,,,,,,,14519 E 53rd Ave
S,3191740,1713727,39.79101178,-104.81768755,,5305,,,N,Deephaven,Ct,,,,,,,,,5305 N Deephaven Ct
S,3191243,1713943,39.79161495,-104.81945031,,5473,,,N,Sable,St,,,,,,,,,5473 N Sable St
S,3191211,1713882,39.79144816,-104.81956581,,5453,,,N,Sable,St,,,,,,,,,5453 N Sable St
S,3191134,1713622,39.79073602,-104.81984674,,5343,,,N,Sable,St,,,,,,,,,5343 N Sable St
S,3207417,1707356,39.77318637,-104.76208699,,4105,,,N,Dunkirk,Ct,,,,,,,,,4105 N Dunkirk Ct
S,3207405,1707402,39.77331292,-104.76212835,,4107,,,N,Dunkirk,Ct,,,,,,,,,4107 N Dunkirk Ct
S,3207396,1707449,39.77344214,-104.76215901,,4111,,,N,Dunkirk,Ct,,,,,,,,,4111 N Dunkirk Ct
S,3207400,1707501,39.77358479,-104.76214328,,4115,,,N,Dunkirk,Ct,,,,,,,,,4115 N Dunkirk Ct
S,3207418,1707548,39.77371341,-104.76207788,,4119,,,N,Dunkirk,Ct,,,,,,,,,4119 N Dunkirk Ct
L,3194072,1708857,39.77759597,-104.80952138,,4650,,,N,Chambers,Rd,,,,,,,,,4650 N Chambers Rd
S,3194238,1707797,39.7746815,-104.8089592,,4400,,,N,Chambers,Rd,,,,,,,,,4400 N Chambers Rd
S,3194188,1707591,39.77411705,-104.80914265,,4020,,,N,Chambers,Rd,,,,,,,,,4020 N Chambers Rd
S,3194476,1713410,39.79008477,-104.80796038,,5241,,,N,Helena,St,,,,,,,,,5241 N Helena St
S,3194206,1711881,39.78589291,-104.80896293,,4878,,,N,Chambers,Rd,,,,,,,,,4878 N Chambers Rd
S,3194121,1711217,39.78407296,-104.80928318,,4820,,,N,Chambers,Rd,,,,,,,,,4820 N Chambers Rd
S,3194152,1711498,39.78484287,-104.80916364,,4824,,,N,Chambers,Rd,,,,,,,,,4824 N Chambers Rd
S,3180083,1711886,39.78619011,-104.85921494,,4959,,,N,Kingston,St,,,,,,,,,4959 N Kingston St
S,3161495,1704091,39.76513434,-104.92552778,,3370,,,N,Glencoe,St,,,,,,,,,3370 N Glencoe St
S,3161662,1703797,39.76432431,-104.92494014,,3335,,,N,Grape,St,,,,,,,,,3335 N Grape St
S,3161514,1703917,39.76465613,-104.92546529,,3340,,,N,Glencoe,St,,,,,,,,,3340 N Glencoe St
S,3161660,1703992,39.76485844,-104.92494287,,3415,,,N,Grape,St,,,,,,,,,3415 N Grape St
S,3161833.31,1704039.02,39.76498555,-104.92432672,,3405,,,N,Grape,St,,,,,,,,,3405 N Grape St
S,3161699,1703902,39.76461122,-104.92480639,,3395,,,N,Grape,St,,,,,,,,,3395 N Grape St
S,3161655,1704191,39.76540579,-104.92495662,,3495,,,N,Grape,St,,,,,,,,,3495 N Grape St
S,3161690,1704159,39.76531809,-104.92483506,,3485,,,N,Grape,St,,,,,,,,,3485 N Grape St
S,3161697,1703765,39.76423512,-104.92481904,,3325,,,N,Grape,St,,,,,,,,,3325 N Grape St
S,3161694,1703671,39.76397638,-104.92482964,,3305,,,N,Grape,St,,,,,,,,,3305 N Grape St
S,3157527,1699922,39.75375762,-104.93973506,,2545,,,N,Albion,St,,,,,,,,,2545 N Albion St
S,3159253,1699289,39.75199055,-104.93361051,,2346,,,N,Cherry,St,,,,,,,,,2346 N Cherry St
S,3159424,1699135,39.75156406,-104.93300416,,2323,,,N,Dexter,St,,,,,,,,,2323 N Dexter St
S,3158215,1704079,39.76515753,-104.93719657,,3435,,,N,Bellaire,St,,,,,,,,,3435 N Bellaire St
S,3158218,1703895,39.76465238,-104.93718995,,3401,,,N,Bellaire,St,,,,,,,,,3401 N Bellaire St
S,3158252,1704043,39.76505802,-104.93706489,,3431,,,N,Bellaire,St,,,,,,,,,3431 N Bellaire St
S,3158216,1703931,39.76475124,-104.93719627,,3407,,,N,Bellaire,St,,,,,,,,,3407 N Bellaire St
S,3158217,1704175,39.76542104,-104.93718734,,3443,,,N,Bellaire,St,,,,,,,,,3443 N Bellaire St
S,3157983,1695528,39.74168764,-104.93820992,,4125,,,E,16th,Ave,,,,,,,,,4125 E 16th Ave
S,3157391,1695543,39.74173884,-104.9403147,,1612,,,N,Colorado,Blvd,,,,,,,,,1612 N Colorado Blvd
S,3157420,1695671,39.74208973,-104.94020877,,1628,,,N,Colorado,Blvd,,,,,,,,,1628 N Colorado Blvd
S,3157380,1695494,39.74160457,-104.94035466,,1600,,,N,Colorado,Blvd,,,,,,,,,1600 N Colorado Blvd
S,3157483,1695499,39.7416165,-104.93998852,,4021,,,E,16th,Ave,,,,,,,,,4021 E 16th Ave
S,3157526,1695160,39.74068516,-104.93984304,,1504,,,N,Colorado,Blvd,,,,,,,,,1504 N Colorado Blvd
S,3157872,1695295,39.7410499,-104.93860974,,1540,,,N,Albion,St,,,,,,,,,1540 N Albion St
S,3158059,1695305,39.74107417,-104.93794457,,4140,,,E,16th,Ave,,,,,,,,,4140 E 16th Ave
S,3157914,1695105,39.7405276,-104.93846457,,4115,,,E,Colfax,Ave,,,,,,,,,4115 E Colfax Ave
S,3140105,1711399,39.78554237,-105.00147331,,1101,,,W,48th,Ave,,,,,#,1,#,1,1101 W 48th Ave #1
S,3133534,1713889,39.7924753,-105.02480723,,5280,,,N,Federal,Blvd,,,,,,,,,5280 N Federal Blvd
S,3127791,1708919,39.77891187,-105.04533253,,4527,,,N,Utica,St,,,,,,,,,4527 N Utica St
S,3127756,1709028,39.77921146,-105.04545541,,4545,,,N,Utica,St,,,,,,,,,4545 N Utica St
S,3127470,1709013,39.77917541,-105.04647285,,4543,,,N,Vrain,St,,,,,,,,,4543 N Vrain St
S,3126947,1709151,39.77955888,-105.04833266,,4568,,,N,Wolff,St,,,,,,,,,4568 N Wolff St
S,3127144,1709301,39.77996927,-105.04762806,,4585,,,N,Winona,Ct,,,,,,,,,4585 N Winona Ct
S,3126783,1709175,39.77962831,-105.04891461,,4571,,,N,Wolff,St,,,,,,,,,4571 N Wolff St
S,3126279,1708957,39.77903701,-105.05071154,,4534,,,N,Yates,St,,,,,,,,,4534 N Yates St
S,3126453,1708798,39.77859788,-105.05009535,,4511,,,N,Xavier,St,,,,,,,,,4511 N Xavier St
S,3130697,1711992,39.78730721,-105.03493779,,4955,,,N,Lowell,Blvd,,,Bldg,1,,,Bldg,1,4955 N Lowell Blvd Bldg 1
S,3130704,1711694,39.78649042,-105.03491697,,4949,,,N,Lowell,Blvd,,,,,,,,,4949 N Lowell Blvd
S,3126183,1707437,39.7748654,-105.05107989,,4301,,,N,Yates,St,,,,,,,,,4301 N Yates St
S,3125839,1707589,39.77528629,-105.05230091,,4325,,,N,Zenobia,St,,,,,,,,,4325 N Zenobia St
S,3125673,1706779,39.77306496,-105.05290566,,5123,,,W,41st,Ave,,,,,,,,,5123 W 41st Ave
S,3125813,1706935,39.77349234,-105.05240501,,4129,,,N,Zenobia,St,,,,,,,,,4129 N Zenobia St
S,3125830,1707278,39.7744337,-105.05233852,,4185,,,N,Zenobia,St,,,,,,,,,4185 N Zenobia St
S,3126158,1706791,39.77309236,-105.05118019,,4101,,,N,Yates,St,,,,,,,,,4101 N Yates St
S,3126458,1706890,39.77336006,-105.05011118,,4123,,,N,Xavier,St,,,,,,,,,4123 N Xavier St
S,3126503,1706928,39.77346377,-105.04995042,,4129,,,N,Xavier,St,,,,,,,,,4129 N Xavier St
S,3128412,1707477,39.7749447,-105.04314921,,4253,,,N,Stuart,St,,,,,,,,,4253 N Stuart St
S,3128408,1707538,39.77511221,-105.04316235,,4283,,,N,Stuart,St,,,,,,,,,4283 N Stuart St
S,3128244,1707473,39.77493604,-105.04374697,,4258,,,N,Tennyson,St,,,,,#,101,#,101,4258 N Tennyson St #101
S,3128258,1707231,39.77427077,-105.04370053,,4218,,,N,Tennyson,St,,,,,,,,,4218 N Tennyson St
S,3128553,1711510,39.78601399,-105.04257505,,4920,,,N,Stuart,St,,,,,,,,,4920 N Stuart St
S,3128724,1711914,39.78712029,-105.04196109,,4981,,,N,Raleigh,St,,,,,,,,,4981 N Raleigh St
S,3126598,1707230,39.77429151,-105.04960713,,4172,,,N,Xavier,St,,,,,,,,,4172 N Xavier St
S,3126646,1707060,39.77382418,-105.04943936,,4146,,,N,Xavier,St,,,,,,,,,4146 N Xavier St
S,3126598,1706930,39.77346668,-105.04961306,,4126,,,N,Xavier,St,,,,,,,,,4126 N Xavier St
S,3126820,1707119,39.77398394,-105.04881811,,4159,,,N,Wolff,St,,,,,,,,,4159 N Wolff St
S,3126786,1707193,39.77418738,-105.04893895,,4165,,,N,Wolff,St,,,,,,,,,4165 N Wolff St
S,3126973,1706956,39.77353423,-105.04827787,,4130,,,N,Wolff,St,,,,,,,,,4130 N Wolff St
S,3127156,1707185,39.77416065,-105.04762196,,4165,,,N,Winona,Ct,,,,,,,,,4165 N Winona Ct
S,3127156,1707349,39.77460996,-105.04761968,,4191,,,N,Winona,Ct,,,,,,,,,4191 N Winona Ct
S,3127299,1706946,39.77350232,-105.04711828,,4122,,,N,Winona,Ct,,,,,,,,,4122 N Winona Ct
S,3129883,1705801,39.77032311,-105.0379476,,3842,,,N,Osceola,St,,,,,,,,,3842 N Osceola St
S,3129568,1705796,39.77031435,-105.03906789,,3850,,,N,Perry,St,,,,,,,,,3850 N Perry St
S,3129614,1705562,39.76967197,-105.03890922,,3923,,,W,38th,Ave,,,,,,,,,3923 W 38th Ave
S,3129689,1705527,39.7695749,-105.03864193,,3915,,,W,38th,Ave,,,,,,,,,3915 W 38th Ave
S,3129756,1705523,39.76956099,-105.03840479,,3901,,,W,38th,Ave,,,,,,,,,3901 W 38th Ave
S,3150857,1712129,39.78737821,-104.96320202,,5060,,,N,Race,St,,,,,,,,,5060 N Race St
S,3149944,1710907,39.78403943,-104.96647611,,4800,,,N,Brighton,Blvd,,,,,,,,,4800 N Brighton Blvd
S,3130259,1711423,39.78575243,-105.03650698,,3725,,,W,49th,Ave,,,,,,,,,3725 W 49th Ave
S,3129210,1711583,39.78620614,-105.0402368,,4932,,,N,Quitman,St,,,,,,,,,4932 N Quitman St
S,3129425,1711968,39.78725831,-105.03946582,,4993,,,N,Perry,St,,,,,,,,,4993 N Perry St
S,3128212,1706359,39.77187964,-105.04388207,,4014,,,N,Tennyson,St,,,,,,,,,4014 N Tennyson St
S,3128238,1706204,39.77145343,-105.04379128,,3926,,,N,Tennyson,St,,,,,,,,,3926 N Tennyson St
S,3143949,1712307,39.78797516,-104.98777586,,5025,,,N,Broadway,,,,,,,,,,5025 N Broadway
S,3143919,1712378,39.78817162,-104.98788285,,5041,,,N,Broadway,,,,,,,,,,5041 N Broadway
S,3143732,1712720,39.78911334,-104.9885414,,5098,,,N,Acoma,St,,,,,,,,,5098 N Acoma St
S,3143729,1712029,39.78721692,-104.98856692,,4990,,,N,Acoma,St,,,,,,,,,4990 N Acoma St
S,3143919,1711373,39.78541276,-104.987903,,4885,,,N,Broadway,,,,,,,,,,4885 N Broadway
S,3143755,1711140,39.78477568,-104.98849121,,4870,,,N,Acoma,St,,,,,,,,,4870 N Acoma St
L,3144755,1710995,39.78436241,-104.98493557,,100,,,E,48th,Ave,,,,,,,,,100 E 48th Ave
S,3146466,1712325,39.78798636,-104.97882095,,5005,,,N,Washington,St,,,,,,,,,5005 N Washington St
S,3128900,1710314,39.78272565,-105.04136258,,4734,,,N,Raleigh,St,,,,,,,,,4734 N Raleigh St
S,3128926,1710369,39.78287656,-105.04126863,,4744,,,N,Raleigh,St,,,,,,,,,4744 N Raleigh St
S,3128932,1709805,39.78132821,-105.04125742,,4660,,,N,Raleigh,St,,,,,,,,,4660 N Raleigh St
S,3128932,1709545,39.78061447,-105.04126209,,4616,,,N,Raleigh,St,,,,,,,,,4616 N Raleigh St
S,3129077,1709546,39.78061521,-105.04074617,,4617,,,N,Quitman,St,,,,,,,,,4617 N Quitman St
S,3129583,1709763,39.78120387,-105.03894195,,4610,,,N,Perry,St,,,,,,,,,4610 N Perry St
S,3129952,1709828,39.78137716,-105.03762789,,3825,,,W,Alice,Pl,,,,,,,,,3825 W Alice Pl
S,3130565,1709251,39.77978462,-105.03545736,,4578,,,N,Meade,St,,,,,,,,,4578 N Meade St
S,3130565,1709200,39.77964462,-105.03545828,,4570,,,N,Meade,St,,,,,,,,,4570 N Meade St
S,3130741,1708985,39.77905314,-105.03483512,,4535,,,N,Lowell,Blvd,,,,,,,,,4535 N Lowell Blvd
S,3128143,1706428,39.77206984,-105.04412317,,3949,,,N,Tennyson,St,,,,,,,,,3949 N Tennyson St
S,3128072,1706485,39.77222619,-105.04437651,,3961,,,N,Tennyson,St,,,,,,,,,3961 N Tennyson St
S,3128142,1706530,39.77234919,-105.04412598,,3965,,,N,Tennyson,St,,,,,,,,,3965 N Tennyson St
S,3128140,1706585,39.77249862,-105.04413179,,3973,,,N,Tennyson,St,,,,,,,,,3973 N Tennyson St
S,3128083,1706144,39.77128994,-105.04434346,,3903,,,N,Tennyson,St,,,,,,,,,3903 N Tennyson St
S,3128209,1707280,39.77440736,-105.04387521,,4224,,,N,Tennyson,St,,,,,,,,,4224 N Tennyson St
S,3128550,1707234,39.77427545,-105.04266167,,4218,,,N,Stuart,St,,,,,,,,,4218 N Stuart St
S,3128600,1707185,39.77414137,-105.04248416,,4210,,,N,Stuart,St,,,,,,,,,4210 N Stuart St
S,3129772,1706038,39.77097474,-105.03833619,,3883,,,N,Osceola,St,,,,,,,,,3883 N Osceola St
S,3142887,1712640,39.78890675,-104.99154979,,5151,,,N,Bannock,St,,,,,,,,,5151 N Bannock St
S,3142412,1711091,39.78466262,-104.99327173,,555,,,W,48th,Ave,,,,,,,,,555 W 48th Ave
S,3141869,1713379,39.79095099,-104.99515756,,5197,,,N,Fox,St,,,,,,,,,5197 N Fox St
S,3141976,1712449,39.78839639,-104.99479521,,5050,,,N,Fox,St,,,,,,,,,5050 N Fox St
S,3142176,1713030,39.78998723,-104.99407373,,5160,,,N,Fox,St,,,,,,,,,5160 N Fox St
S,3141687,1711600,39.78607018,-104.99584033,,701,,,W,48th,Ave,,,,,,,,,701 W 48th Ave
S,3141656,1712967,39.78982324,-104.99592364,,5151,,,N,Fox,St,,,,,,,,,5151 N Fox St
S,3142768,1711474,39.78570776,-104.99199643,,4955,,,N,Bannock,St,,,,,,,,,4955 N Bannock St
S,3143949,1712998,39.78987313,-104.98776366,,5,,,W,51st,Ave,,,,,,,,,5 W 51st Ave
S,3128712,1711100,39.78488622,-105.04201694,,4857,,,N,Raleigh,St,,,,,,,,,4857 N Raleigh St
S,3130092,1711306,39.78543237,-105.03710172,,4887,,,N,Newton,St,,,,,,,,,4887 N Newton St
S,3130093,1711333,39.78550671,-105.03709937,,4893,,,N,Newton,St,,,,,,,,,4893 N Newton St
S,3130696,1710959,39.78447149,-105.03496016,,4821,,,N,Lowell,Blvd,,,,,,,,,4821 N Lowell Blvd
S,3129407,1708830,39.7786451,-105.03958497,,4509,,,N,Perry,St,,,,,,,,,4509 N Perry St
S,3130440,1709930,39.78165004,-105.03588819,,4661,,,N,Meade,St,,,,,,,,,4661 N Meade St
S,3130744,1710348,39.78279405,-105.03480065,,4735,,,N,Lowell,Blvd,,,,,,,,,4735 N Lowell Blvd
S,3128930,1710431,39.7830467,-105.04125329,,4754,,,N,Raleigh,St,,,,,,,,,4754 N Raleigh St
S,3127440,1707009,39.77367333,-105.04661555,,4137,,,N,Vrain,St,,,,,,,,,4137 N Vrain St
S,3127438,1707355,39.77462319,-105.04661652,,4195,,,N,Vrain,St,,,,,,,,,4195 N Vrain St
S,3127260,1707092,39.7739033,-105.04725466,,4150,,,N,Winona,Ct,,,,,,,,,4150 N Winona Ct
S,3127900,1707347,39.77459579,-105.04497259,,4190,,,N,Utica,St,,,,,,,,,4190 N Utica St
S,3127903,1707296,39.77445493,-105.044963,,4184,,,N,Utica,St,,,,,,,,,4184 N Utica St
S,3128274,1706678,39.77275302,-105.04365482,,4116,,,N,Tennyson,St,,,,,,,,,4116 N Tennyson St
S,3128203,1706457,39.77214686,-105.04391009,,4026,,,N,Tennyson,St,,,,,,,,,4026 N Tennyson St
S,3128220,1705676,39.77000352,-105.04386556,,3832,,,N,Tennyson,St,,,,,,,,,3832 N Tennyson St
S,3144246,1712160,39.78756811,-104.98672367,,5001,,,N,Lincoln,St,,,,,,,,,5001 N Lincoln St
S,3144424,1712571,39.7886936,-104.98608202,,5070,,,N,Lincoln,St,,,,,,,,,5070 N Lincoln St
S,3144424,1712297,39.78794143,-104.98608754,,5026,,,N,Lincoln,St,,,,,,,,,5026 N Lincoln St
S,3144949,1712289,39.78791004,-104.98421865,,5025,,,N,Grant,St,,,,,,,,,5025 N Grant St
S,3146220,1711502,39.78572995,-104.97971137,,615,,,E,49th,Ave,,,,,,,,,615 E 49th Ave
S,3128908,1709330,39.78002584,-105.04135271,,4590,,,N,Raleigh,St,,,,,,,,,4590 N Raleigh St
S,3128909,1709247,39.77979728,-105.04134787,,4578,,,N,Raleigh,St,,,,,,,,,4578 N Raleigh St
S,3128939,1708986,39.77907984,-105.04124723,,4540,,,N,Raleigh,St,,,,,,,,,4540 N Raleigh St
S,3128897,1708774,39.77849713,-105.04139929,,4500,,,N,Raleigh,St,,,,,,,,,4500 N Raleigh St
S,3129102,1709350,39.78007795,-105.04065904,,4100,,,W,46th,Ave,,,,,,,,,4100 W 46th Ave
S,3128583,1709223,39.77973497,-105.04250943,,4574,,,N,Stuart,St,,,,,,,,,4574 N Stuart St
S,3128760,1709335,39.78004166,-105.04187836,,4200,,,W,46th,Ave,,,,,,,,,4200 W 46th Ave
S,3128269,1708967,39.77903695,-105.04363133,,4536,,,N,Tennyson,St,,,,,,,,,4536 N Tennyson St
S,3128902,1707501,39.77500489,-105.04140697,,4260,,,N,Raleigh,St,,,,,,,,,4260 N Raleigh St
S,3129594,1708785,39.77851896,-105.03892047,,4500,,,N,Perry,St,,,,,,,,,4500 N Perry St
S,3129728,1709094,39.77936535,-105.03843814,,4555,,,N,Osceola,St,,,,,,,,,4555 N Osceola St
S,3129741,1709025,39.77917591,-105.0383915,,4545,,,N,Osceola,St,,,,,,,,,4545 N Osceola St
S,3129224,1708928,39.77891667,-105.04023429,,4528,,,N,Quitman,St,,,,,,,,,4528 N Quitman St
S,3127115,1706586,39.77251658,-105.04777925,,3971,,,N,Winona,Ct,,,,,,,,,3971 N Winona Ct
S,3126620,1706332,39.77182606,-105.0495447,,3936,,,N,Xavier,St,,,,,,,,,3936 N Xavier St
S,3126791,1706187,39.77142568,-105.04893893,,3911,,,N,Wolff,St,,,,,,,,,3911 N Wolff St
S,3126786,1706254,39.7716085,-105.04895536,,3923,,,N,Wolff,St,,,,,,,,,3923 N Wolff St
S,3126787,1706320,39.77179084,-105.04895081,,3935,,,N,Wolff,St,,,,,,,,,3935 N Wolff St
S,3126273,1706556,39.7724451,-105.05077691,,3968,,,N,Yates,St,,,,,,,,,3968 N Yates St
S,3126323,1706291,39.77171755,-105.05060199,,3928,,,N,Yates,St,,,,,,,,,3928 N Yates St
S,3126138,1706528,39.77237066,-105.05125596,,3967,,,N,Yates,St,,,,,,,,,3967 N Yates St
S,3125784,1706618,39.77262252,-105.05251374,,3989,,,N,Zenobia,St,,,,,,,,,3989 N Zenobia St
S,3125837,1706630,39.77265474,-105.05232498,,3991,,,N,Zenobia,St,,,,,,,,,3991 N Zenobia St
S,3128935,1707317,39.77449824,-105.04129144,,4230,,,N,Raleigh,St,,,,,,,,,4230 N Raleigh St
S,3129255,1707142,39.77401215,-105.04015523,,4200,,,N,Quitman,St,,,,,,,,,4200 N Quitman St
S,3129437,1707552,39.77513644,-105.03950107,,4269,,,N,Perry,St,,,,,,,,,4269 N Perry St
S,3129447,1706741,39.77290957,-105.03947878,,4117,,,N,Perry,St,,,,,,,,,4117 N Perry St
S,3129445,1706825,39.77313931,-105.03948561,,4137,,,N,Perry,St,,,,,,,,,4137 N Perry St
S,3129451,1707042,39.77373616,-105.03946068,,4165,,,N,Perry,St,,,,,,,,,4165 N Perry St
S,3129211,1706936,39.77344723,-105.04031682,,4148,,,N,Quitman,St,,,,,,,,,4148 N Quitman St
S,3129430,1706972,39.7735448,-105.03953694,,4157,,,N,Perry,St,,,,,,,,,4157 N Perry St
S,3144051,1711272,39.78513299,-104.98743395,,4874,,,N,Broadway,,,,,,,,,,4874 N Broadway
S,3129448,1709342,39.78005004,-105.03942987,,4595,,,N,Perry,St,,,,,,,,,4595 N Perry St
S,3128114,1706132,39.77125735,-105.04423436,,3901,,,N,Tennyson,St,,,,,,,,,3901 N Tennyson St
S,3128125,1706406,39.77200967,-105.04419055,,3945,,,N,Tennyson,St,,,,,,,,,3945 N Tennyson St
S,3127627,1706390,39.77197152,-105.04596128,,3942,,,N,Vrain,St,,,,,,,,,3942 N Vrain St
S,3127628,1706178,39.77138953,-105.0459615,,3914,,,N,Vrain,St,,,,,,,,,3914 N Vrain St
S,3129541,1706088,39.77111557,-105.03915712,,3890,,,N,Perry,St,,,,,,,,,3890 N Perry St
S,3129209,1705949,39.77074016,-105.04034254,,3874,,,N,Quitman,St,,,,,,,,,3874 N Quitman St
S,3129007,1705629,39.76986442,-105.04106451,,4115,,,W,38th,Ave,,,,,,,,,4115 W 38th Ave
S,3128584,1705556,39.76966888,-105.04257171,,3812,,,N,Stuart,St,,,,,,,,,3812 N Stuart St
S,3128621,1705515,39.76955581,-105.04244082,,4223,,,W,38th,Ave,,,,,,,,,4223 W 38th Ave
S,3128745,1705688,39.77002901,-105.04199661,,3829,,,N,Raleigh,St,,,,,,,,,3829 N Raleigh St
S,3127790,1706383,39.77195058,-105.04538202,,3941,,,N,Utica,St,,,,,,,,,3941 N Utica St
S,3127810,1706582,39.77249608,-105.04530685,,3977,,,N,Utica,St,,,,,,,,,3977 N Utica St
S,3127749,1706531,39.77235691,-105.04552476,,3961,,,N,Utica,St,,,,,,,,,3961 N Utica St
S,3127300,1706489,39.77224777,-105.04712283,,3960,,,N,Winona,Ct,,,,,,,,,3960 N Winona Ct
S,3127443,1706338,39.77183129,-105.04661679,,3939,,,N,Vrain,St,,,,,,,,,3939 N Vrain St
S,3126967,1706706,39.77284859,-105.04830363,,4736,,,W,41st,Ave,,,,,,,,,4736 W 41st Ave
S,3127024,1706699,39.77282728,-105.04809958,,4726,,,W,41st,Ave,,,,,,,,,4726 W 41st Ave
S,3126976,1706416,39.7720518,-105.04827675,,3948,,,N,Wolff,St,,,,,,,,,3948 N Wolff St
S,3128265,1706171,39.77136155,-105.04369552,,3918,,,N,Tennyson,St,,,,,,,,,3918 N Tennyson St
S,3128410,1706335,39.77180976,-105.04317676,,4007,,,N,Stuart,St,,,,,,,,,4007 N Stuart St
S,3128545,1706215,39.77147721,-105.04269717,,3926,,,N,Stuart,St,,,,,,,,,3926 N Stuart St
S,3128895,1706367,39.7718909,-105.04145081,,4006,,,N,Raleigh,St,,,,,,,,,4006 N Raleigh St
S,3128913,1706159,39.77131857,-105.04139022,,3916,,,N,Raleigh,St,,,,,,,,,3916 N Raleigh St
S,3129581,1706435,39.77206803,-105.03900915,,3920,,,N,Perry,St,,,,,,,,,3920 N Perry St
S,3129738,1706192,39.7713977,-105.03845444,,3901,,,N,Osceola,St,,,,,,,,,3901 N Osceola St
S,3129731,1706335,39.77179143,-105.03847733,,3935,,,N,Osceola,St,,,,,,,,,3935 N Osceola St
S,3129765,1706249,39.77155453,-105.0383566,,3909,,,N,Osceola,St,,,,,,,,,3909 N Osceola St
S,3146577,1711540,39.78582986,-104.97844165,,4915,,,N,Washington,St,,,,,,,,,4915 N Washington St
S,3146001,1711672,39.78619986,-104.98048801,,4935,,,N,Pearl,St,,,,,,,,,4935 N Pearl St
S,3144274,1711623,39.78609354,-104.98663483,,4916,,,N,Leaf,Ct,,,,,,,,,4916 N Leaf Ct
S,3144274,1711672,39.78622805,-104.98663385,,4926,,,N,Leaf,Ct,,,,,,,,,4926 N Leaf Ct
S,3128236,1708770,39.77849584,-105.04375356,,4500,,,N,Tennyson,St,,,,,,,,,4500 N Tennyson St
S,3128425,1708933,39.77894146,-105.04307691,,4525,,,N,Stuart,St,,,,,,,,,4525 N Stuart St
S,3128276,1708648,39.77816115,-105.04361212,,4484,,,N,Tennyson,St,,,,,,,,,4484 N Tennyson St
S,3128221,1708585,39.77798914,-105.0438106,,4478,,,N,Tennyson,St,,,,,,,,,4478 N Tennyson St
S,3128286,1708412,39.77751316,-105.04358077,,4450,,,N,Tennyson,St,,,,,,,,,4450 N Tennyson St
S,3128278,1708328,39.77728267,-105.04361073,,4436,,,N,Tennyson,St,,,,,,,,,4436 N Tennyson St
S,3135191,1710504,39.7831582,-105.01897501,,4760,,,N,Bryant,St,,,,,,,,,4760 N Bryant St
S,3134640,1710136,39.78215598,-105.0209424,,2711,,,W,47th,Ave,,,,,,,,,2711 W 47th Ave
S,3133988,1710604,39.78345012,-105.02325348,,4785,,,N,Elm,Ct,,,,,,,,,4785 N Elm Ct
S,3134584,1708077,39.77650495,-105.02118106,,2714,,,W,44th,Ave,,,,,,,,,2714 W 44th Ave
S,3134677,1707864,39.77591847,-105.02085339,,4335,,,N,Clay,St,,,,,,,,,4335 N Clay St
S,3133995,1707905,39.77604087,-105.02327897,,4330,,,N,Eliot,St,,,,,,,,,4330 N Eliot St
S,3134033,1707704,39.77548855,-105.02314753,,2841,,,W,43rd,Ave,,,,,,,,,2841 W 43rd Ave
S,3134115,1708075,39.77650619,-105.02284812,,2832,,,W,44th,Ave,,,,,,,,,2832 W 44th Ave
S,3133994,1708067,39.7764856,-105.0232795,,4358,,,N,Eliot,St,,,,,,,,,4358 N Eliot St
S,3133559,1708023,39.77637107,-105.02482792,,2990,,,W,44th,Ave,,,,,,,,,2990 W 44th Ave
L,3145567,1711111,39.78466777,-104.98204463,,400,,,E,48th,Ave,,,,,,,,,400 E 48th Ave
S,3146469,1710929,39.78415411,-104.97883878,,684,,,E,Elgin,Pl,,,,,,,,,684 E Elgin Pl
S,3212994,1707896,39.77454269,-104.74223097,,4168,,,N,Malaya,St,,,,,,,,,4168 N Malaya St
S,3213003,1707942,39.77466877,-104.74219759,,4182,,,N,Malaya,St,,,,,,,,,4182 N Malaya St
S,3213006,1707987,39.77479223,-104.74218558,,4188,,,N,Malaya,St,,,,,,,,,4188 N Malaya St
S,3213007,1708045,39.77495142,-104.7421803,,4190,,,N,Malaya,St,,,,,,,,,4190 N Malaya St
S,3168502,1706977,39.7729323,-104.90053659,,7320,,,E,40th,Ave,,,,,,,,,7320 E 40th Ave
S,3170113,1707008,39.77298828,-104.89480635,,8065,,,E,40th,Ave,,,,,,,,,8065 E 40th Ave
S,3184037,1710748,39.78299038,-104.84517591,,12275,,,E,Albrook,Dr,,,,,,,,,12275 E Albrook Dr
S,3184031,1710732,39.78294474,-104.8451961,,12285,,,E,Albrook,Dr,,,,,,,,,12285 E Albrook Dr
S,3184024,1710717,39.78290485,-104.84522118,,12295,,,E,Albrook,Dr,,,,,,,,,12295 E Albrook Dr
S,3184782,1708996,39.77816554,-104.84256875,,12360,,,E,46th,Ave,,,,,,,,,12360 E 46th Ave
S,3184389,1710059,39.78109037,-104.84393817,,12600,,,E,Albrook,Dr,,,,,,,,,12600 E Albrook Dr
S,3185904,1709037,39.77825573,-104.83857607,,13400,,,E,Albrook,Dr,,,,,,,,,13400 E Albrook Dr
S,3163978,1703976,39.76477499,-104.91669929,,3351,,,N,Krameria,St,,,,,,,,,3351 N Krameria St
S,3163825,1703786,39.76425611,-104.91724786,,3318,,,N,Kearney,St,,,,,,,,,3318 N Kearney St
S,3163980,1703817,39.76433756,-104.91669493,,3325,,,N,Krameria,St,,,,,,,,,3325 N Krameria St
S,3163996,1703801,39.76429308,-104.91664016,,3319,,,N,Krameria,St,,,,,,,,,3319 N Krameria St
S,3161037,1698016,39.74846526,-104.92729435,,2055,,,N,Forest,St,,,,,,,,,2055 N Forest St
S,3161694,1697746,39.74771267,-104.92496397,,5335,,,E,Montview,Blvd,,,,,,,,,5335 E Montview Blvd
S,3161869,1698197,39.7489477,-104.92433146,,2080,,,N,Grape,St,,,,,,,,,2080 N Grape St
S,3159248,1700044,39.75406323,-104.93361155,,2560,,,N,Cherry,St,,,,,,,,,2560 N Cherry St
S,3158179,1699810,39.75343981,-104.93741825,,2529,,,N,Bellaire,St,,,,,,,,,2529 N Bellaire St
S,3166517,1698614,39.75001041,-104.90779218,,2200,,,N,Oneida,St,,,,,,,,,2200 N Oneida St
S,3166552,1698922,39.75085529,-104.90766056,,6920,,,E,23rd,Ave,,,,,,,,,6920 E 23rd Ave
S,3166516,1698749,39.75038102,-104.9077926,,2230,,,N,Oneida,St,,,,,,,,,2230 N Oneida St
S,3166852,1698493,39.74967224,-104.90660361,,2154,,,N,Olive,St,,,,,,,,,2154 N Olive St
S,3166141,1698469,39.74961834,-104.90913376,,2164,,,N,Newport,St,,,,,,,,,2164 N Newport St
S,3166329,1698488,39.74966921,-104.90846523,,2155,,,N,Oneida,St,,,,,,,,,2155 N Oneida St
S,3166017,1698428,39.74950819,-104.90957627,,2145,,,N,Newport,St,,,,,,,,,2145 N Newport St
S,3167124,1697801,39.74776645,-104.90565371,,7111,,,E,Montview,Blvd,,,,,,,,,7111 E Montview Blvd
S,3172635,1695432,39.74116298,-104.88611196,,1541,,,N,Xenia,St,,,,,,,,,1541 N Xenia St
S,3172657,1695338,39.74090538,-104.88603503,,1523,,,N,Xenia,St,,,,,,,,,1523 N Xenia St
S,3166508,1697479,39.74689385,-104.90785143,,1920,,,N,Oneida,St,,,,,,,,,1920 N Oneida St
S,3170970,1696552,39.74426915,-104.89200489,,1717,,,N,Valentia,St,,,,,,,,,1717 N Valentia St
S,3171954,1696847,39.74506084,-104.88849869,,1767,,,N,Willow,St,,,,,,,,,1767 N Willow St
S,3170456,1695352,39.74098467,-104.89386154,,1538,,,N,Ulster,St,,,,,,,,,1538 N Ulster St
S,3170457,1695248,39.74069989,-104.89385845,,1522,,,N,Ulster,St,,,,,,,,,1522 N Ulster St
S,3158065,1704005,39.76495694,-104.93773176,,3424,,,N,Ash,St,,,,,,,,,3424 N Ash St
S,3128079,1709331,39.7800388,-105.04430082,,4400,,,W,46th,Ave,,,,,,,,,4400 W 46th Ave
S,3127760,1708866,39.77876669,-105.04544407,,4523,,,N,Utica,St,,,,,,,,,4523 N Utica St
S,3127834,1706040,39.77100753,-105.04523119,,3891,,,N,Utica,St,,,,,,,,,3891 N Utica St
S,3128122,1705773,39.77027089,-105.04420979,,3845,,,N,Tennyson,St,,,,,,,,,3845 N Tennyson St
S,3128125,1705754,39.77021796,-105.04420272,,3843,,,N,Tennyson,St,,,,,,,,,3843 N Tennyson St
L,3127965,1705681,39.77002153,-105.04477149,,3833,,,N,Tennyson,St,,,,,,,,,3833 N Tennyson St
S,3128085,1705714,39.7701085,-105.04434363,,3825,,,N,Tennyson,St,,,,,,,,,3825 N Tennyson St
S,3130398,1707233,39.77424725,-105.03608819,,4159,,,N,Lowell,Blvd,,,,,,,,,4159 N Lowell Blvd
S,3155794,1713295,39.79049755,-104.94560829,,3576,,,E,52nd,Ave,,,,,,,,,3576 E 52nd Ave
S,3155903,1711521,39.78562587,-104.94525897,,5000,,,N,Vasquez,Blvd,,,,,,,,,5000 N Vasquez Blvd
S,3156294,1712188,39.78745031,-104.9438532,,3701,,,E,50th,Ave,,,,,,,,,3701 E 50th Ave
S,3155594,1712961,39.78958402,-104.94632721,,5100,,,N,Cook,St,,,,,,,,,5100 N Cook St
S,3156642,1713390,39.79074478,-104.94258899,,5190,,,N,Vasquez,Blvd,,,,,,,,,5190 N Vasquez Blvd
S,3156564,1712312,39.78778616,-104.94288977,,3801,,,E,50th,Ave,,,,,,,,,3801 E 50th Ave
S,3154770,1713417,39.79084955,-104.94924947,,3200,,,E,52nd,Ave,,,,,,,,,3200 E 52nd Ave
S,3155293,1711255,39.78490721,-104.9474326,,4900,,,N,Cook,St,,,,,,,,,4900 N Cook St
S,3155551,1711955,39.78682315,-104.94650203,,4975,,,N,Vasquez,Blvd,,,,,,,,,4975 N Vasquez Blvd
S,3130733,1707890,39.7760456,-105.03488539,,4357,,,N,Lowell,Blvd,,,,,,,,,4357 N Lowell Blvd
S,3129913,1707807,39.77582976,-105.03780323,,4300,,,N,Osceola,St,,,,,,,,,4300 N Osceola St
S,3129913,1708011,39.77638977,-105.03779954,,4370,,,N,Osceola,St,,,,,,,,,4370 N Osceola St
S,3129924,1707950,39.77622216,-105.03776151,,4350,,,N,Osceola,St,,,,,,,,,4350 N Osceola St
S,3129913,1707908,39.77610702,-105.0378014,,4340,,,N,Osceola,St,,,,,,,,,4340 N Osceola St
S,3129914,1707858,39.77596974,-105.03779875,,4320,,,N,Osceola,St,,,,,,,,,4320 N Osceola St
S,3151647,1712605,39.78867196,-104.96037959,,5125,,,N,York,St,,,,,,,,,5125 N York St
S,3149930,1711431,39.78547696,-104.96651277,,4900,,,N,Brighton,Blvd,,,,,,,,,4900 N Brighton Blvd
S,3150931,1712374,39.78804948,-104.9629322,,5100,,,N,Race,St,,,,,,,,,5100 N Race St
S,3151314,1712829,39.78929355,-104.96155869,,5130,,,N,Brighton,Blvd,,,,,,,,,5130 N Brighton Blvd
S,3128783,1712318,39.78822956,-105.04174163,,5049,,,N,Raleigh,St,,,,,,,,,5049 N Raleigh St
S,3130660,1712093,39.78758498,-105.03506761,,5001,,,N,Lowell,Blvd,,,,,,,,,5001 N Lowell Blvd
S,3130693,1712340,39.78826257,-105.03494568,,5025,,,N,Lowell,Blvd,,,,,,,,,5025 N Lowell Blvd
S,3155589,1714387,39.79349865,-104.94631408,,5340,,,N,Cook,St,,,,,,,,,5340 N Cook St
S,3155257,1714240,39.79310067,-104.9474987,,5330,,,N,Cook,St,,,,,,,,,5330 N Cook St
S,3156737,1714306,39.79325702,-104.94223063,,5335,,,N,Harrison,St,,,,,,,,,5335 N Harrison St
S,3161516,1704127,39.76523126,-104.92545258,,3382,,,N,Glencoe,St,,,,,,,,,3382 N Glencoe St
S,3157047,1711367,39.7851833,-104.94119074,,4947,,,N,Colorado,Blvd,,,,,,,,,4947 N Colorado Blvd
S,3156768,1710992,39.7841599,-104.94219292,,3835,,,E,48th,Ave,,,,,,,,,3835 E 48th Ave
S,3156669,1711165,39.7846361,-104.94254103,,4840,,,N,Jackson,St,,,,,,,,,4840 N Jackson St
S,3156485,1711725,39.7861761,-104.94318367,,4955,,,N,Jackson,St,,,,,,,,,4955 N Jackson St
S,3158064,1703282,39.76297222,-104.93775124,,3250,,,N,Ash,St,,,,,,,,,3250 N Ash St
S,3158065,1703229,39.76282671,-104.93774885,,3244,,,N,Ash,St,,,,,,,,,3244 N Ash St
S,3158067,1703139,39.76257961,-104.93774371,,3230,,,N,Ash,St,,,,,,,,,3230 N Ash St
S,3158065,1703351,39.76316162,-104.93774616,,3254,,,N,Ash,St,,,,,,,,,3254 N Ash St
S,3158252,1703084,39.76242587,-104.93708783,,3223,,,N,Bellaire,St,,,,,,,,,3223 N Bellaire St
S,3158180,1703221,39.76280148,-104.93733939,,3231,,,N,Bellaire,St,,,,,,,,,3231 N Bellaire St
S,3157830,1702502,39.76083498,-104.93860072,,3031,,,N,Ash,St,,,,,,,,,3031 N Ash St
S,3157382,1702320,39.76034295,-104.9401982,,3000,,,N,Colorado,Blvd,,,,,,,,,3000 N Colorado Blvd
S,3158935,1701237,39.75734355,-104.93469835,,2840,,,N,Clermont,St,,,,,,,,,2840 N Clermont St
S,3161727,1695045,39.74029604,-104.92490625,,5335,,,E,Colfax,Ave,,,,,,,,,5335 E Colfax Ave
S,3161720,1695424,39.74133886,-104.9249231,,1563,,,N,Grape,St,,,,,,,,,1563 N Grape St
S,3161578,1695573,39.74174944,-104.92542537,,1584,,,N,Glencoe,St,,,,,,,,,1584 N Glencoe St
S,3161258,1695404,39.7412916,-104.92656731,,1550,,,N,Forest,St,,,,,,,,,1550 N Forest St
S,3161242,1695327,39.74107996,-104.92662568,,1540,,,N,Forest,St,,,,,,,,,1540 N Forest St
S,3161383,1695492,39.74153047,-104.92612059,,1571,,,N,Glencoe,St,,,,,,,,,1571 N Glencoe St
S,3161107,1695356,39.74116069,-104.9271066,,1550,,,N,Filbert,Ct,,,,,,,,,1550 N Filbert Ct
S,3156002,1714434,39.79362075,-104.94484337,,5340,,,N,Monroe,St,,,,,,,,,5340 N Monroe St
S,3156141,1714355,39.79340155,-104.94435045,,5301,,,N,Garfield,St,,,,,,,,,5301 N Garfield St
S,3156141,1714566,39.79398077,-104.94434586,,5365,,,N,Garfield,St,,,,,,,,,5365 N Garfield St
S,3161504,1703795,39.76432164,-104.92550524,,3324,,,N,Glencoe,St,,,,,,,,,3324 N Glencoe St
S,3161490,1703703,39.76406879,-104.92555378,,3308,,,N,Glencoe,St,,,,,,,,,3308 N Glencoe St
S,3161490,1703650,39.76392284,-104.92555512,,5301,,,E,33rd,Ave,,,,,,,,,5301 E 33rd Ave
S,3161201,1703738,39.76416904,-104.92658277,,3318,,,N,Forest,St,,,,,,,,,3318 N Forest St
S,3160577,1704201,39.76545071,-104.92879024,,5016,,,E,35th,Ave,,,,,,,,,5016 E 35th Ave
S,3160981,1703987,39.76485858,-104.92735868,,5179,,,E,34th,Ave,,,,,,,,,5179 E 34th Ave
S,3160717,1703987,39.76486233,-104.92829843,,5085,,,E,34th,Ave,,,,,,,,,5085 E 34th Ave
S,3160641,1704010,39.76492655,-104.92856855,,5035,,,E,34th,Ave,,,,,,,,,5035 E 34th Ave
S,3160471,1703972,39.76482534,-104.9291753,,5001,,,E,34th,Ave,,,,,,,,,5001 E 34th Ave
S,3160912,1703979,39.76483704,-104.92760415,,5151,,,E,34th,Ave,,,,,,,,,5151 E 34th Ave
S,3159078,1698615,39.7501433,-104.93424782,,2245,,,N,Cherry,St,,,,,,,,,2245 N Cherry St
S,3157399,1698111,39.74878829,-104.94022998,,2070,,,N,Colorado,Blvd,,,,,,,,,2070 N Colorado Blvd
S,3159210,1698027,39.74852809,-104.93379063,,2048,,,N,Cherry,St,,,,,,,,,2048 N Cherry St
S,3157525,1704112,39.76525983,-104.93965025,,3435,,,N,Albion,St,,,,,,,,,3435 N Albion St
S,3157526,1703026,39.76227859,-104.93967052,,3201,,,N,Albion,St,,,,,,,,,3201 N Albion St
S,3157727,1703027,39.76227793,-104.93895555,,4101,,,E,Martin Luther King,Blvd,,,,,,,,,4101 E Martin Luther King Blvd
S,3158397,1703735,39.76421057,-104.93655698,,3370,,,N,Bellaire,St,,,,,,,,,3370 N Bellaire St
S,3158528,1703775,39.76431901,-104.93609016,,4330,,,E,Bruce Randolph,Ave,,,,,,,,,4330 E Bruce Randolph Ave
S,3158840,1703381,39.76323078,-104.93498881,,3200,,,N,Birch,St,,,,,,,,,3200 N Birch St
S,3158648,1695231,39.74086101,-104.93585178,,1517,,,N,Clermont,St,,,,,,,,,1517 N Clermont St
S,3158824,1695107,39.7405176,-104.93522869,,1510,,,N,Clermont,St,,,,,,,,,1510 N Clermont St
S,3158824,1695044,39.74034466,-104.93523008,,4505,,,E,Colfax,Ave,,,,,,,,,4505 E Colfax Ave
S,3159848,1697442,39.74691003,-104.93153553,,4800,,,E,Montview,Blvd,,,,,,,,,4800 E Montview Blvd
S,3159848,1697442,39.74691003,-104.93153553,,4850,,,E,Montview,Blvd,,,,,,,,,4850 E Montview Blvd
S,3166885,1695154,39.74050556,-104.90656383,,7001,,,E,Colfax,Ave,,,,,,,,,7001 E Colfax Ave
S,3166964,1695100,39.74035591,-104.90628417,,7023,,,E,Colfax,Ave,,,,,,,,,7023 E Colfax Ave
S,3156492,1711978,39.7868705,-104.94315325,,4995,,,N,Jackson,St,,,,,,,,,4995 N Jackson St
S,3133034,1712952,39.7899094,-105.02660434,,5115,,,N,Federal,Blvd,,,,,,,,,5115 N Federal Blvd
S,3132737,1712451,39.78853833,-105.02767045,,5051,,,N,Federal,Blvd,,,,,,,,,5051 N Federal Blvd
S,3126269,1709323,39.78004113,-105.05073972,,4984,,,W,46th,Ave,,,,,,,,,4984 W 46th Ave
S,3126292,1709334,39.78007028,-105.05065929,,4974,,,W,46th,Ave,,,,,,,,,4974 W 46th Ave
S,3126313,1709334,39.78007101,-105.05058362,,4964,,,W,46th,Ave,,,,,,,,,4964 W 46th Ave
S,3126337,1709332,39.78006618,-105.05049923,,4944,,,W,46th,Ave,,,,,,,,,4944 W 46th Ave
S,3125940,1709004,39.77917143,-105.05191548,,4534,,,N,Zenobia,St,,,,,,,,,4534 N Zenobia St
S,3125830,1709602,39.78081309,-105.05229844,,4600,,,N,Sheridan,Blvd,,,,,,,,,4600 N Sheridan Blvd
S,3125667,1709113,39.77947326,-105.05288628,,4550,,,N,Sheridan,Blvd,,,,,,,,,4550 N Sheridan Blvd
S,3125700,1709014,39.77920104,-105.05277061,,4540,,,N,Sheridan,Blvd,,,,,,,,,4540 N Sheridan Blvd
S,3125805,1709261,39.77987767,-105.0523927,,4583,,,N,Zenobia,St,,,,,,,,,4583 N Zenobia St
S,3125839,1709303,39.77999308,-105.05227055,,4589,,,N,Zenobia,St,,,,,,,,,4589 N Zenobia St
S,3161065,1695291,39.74098415,-104.92725746,,1540,,,N,Filbert,Ct,,,,,,,,,1540 N Filbert Ct
S,3160757,1695420,39.74134365,-104.92834821,,1560,,,N,Fairfax,St,,,,,,,,,1560 N Fairfax St
S,3160755,1695340,39.74112415,-104.92835662,,1554,,,N,Fairfax,St,,,,,,,,,1554 N Fairfax St
S,3169609,1697617,39.74721884,-104.8968187,,7822,,,E,Montview,Blvd,,,,,,,,,7822 E Montview Blvd
S,3169450,1697554,39.7470476,-104.89738645,,1980,,,N,Spruce,St,,,,,,,,,1980 N Spruce St
S,3169240,1697343,39.74647219,-104.89813822,,1914,,,N,Syracuse,St,,,,,,,,,1914 N Syracuse St
S,3170144,1695748,39.74207609,-104.89496168,,8001,,,E,16th,Ave,,,,,,,,,8001 E 16th Ave
S,3167846,1696097,39.74307697,-104.90312462,,1658,,,N,Quebec,St,,,,,,,,,1658 N Quebec St
S,3167858,1695314,39.74092729,-104.90310024,,1530,,,N,Quebec,St,,,,,,,,,1530 N Quebec St
S,3168160,1695195,39.74059418,-104.9020279,,1518,,,N,Quince,St,,,,,,,,,1518 N Quince St
S,3168160,1695101,39.74033604,-104.90203239,,7401,,,E,Colfax,Ave,,,Bldg,1,,,Bldg,1,7401-7405 E Colfax Ave Bldg 1
S,3168161,1695144,39.74045611,-104.9020258,,7401,,,E,Colfax,Ave,,,Bldg,2,,,Bldg,2,7401-7405 E Colfax Ave Bldg 2
S,3161690,1705127,39.7679747,-104.924812,,3621,,,N,Grape,St,,,,,,,,,3621 N Grape St
S,3161658,1705283,39.76840349,-104.92492232,,3651,,,N,Grape,St,,,,,,,,,3651 N Grape St
S,3161644,1705181,39.76812373,-104.92497442,,3631,,,N,Grape,St,,,,,,,,,3631 N Grape St
S,3159701,1697732,39.74770866,-104.93205184,,4735,,,E,Montview,Blvd,,,,,,,,,4735 E Montview Blvd
S,3159701,1697806,39.7479118,-104.9320502,,2021,,,N,Dahlia,St,,,,,,,,,2021 N Dahlia St
S,3159321,1697206,39.74627121,-104.93341488,,1900,,,N,Cherry,St,,,,,,,,,1900 N Cherry St